ADMINISTRATOR,CODIST,SCHOOL NAME,ADDRESS1,ADDRESS2,CITY,STATE,ZIP,PHONE,FAX,ESU AFFILIATION,COUNTY,EMAIL
,00-0016-000,EDUCATIONAL SERVICE UNIT 16,314 W FIRST ST,PO BOX 915,OGALLALA,NE,69153-0915,(308)284-8481,(308)284-8483,16,EDUCATIONAL SERVICE UNITS,
,00-0019-000,EDUCATIONAL SERVICE UNIT 19,3215 CUMING STREET,,OMAHA,NE,68131-2024,(531)299-9463,(531)299-0386,19,EDUCATIONAL SERVICE UNITS,
Kraig Lofquist,00-0009-000,EDUCATIONAL SERVICE UNIT 09,1117 E. SOUTH STREET,,HASTINGS,NE,68901-6443,(402)463-5611,(402)463-9555,09,EDUCATIONAL SERVICE UNITS,kraig.lofquist@esu9.us
Wayne Bell,00-0010-000,EDUCATIONAL SERVICE UNIT 10,,PO BOX 850,KEARNEY,NE,68848-0850,(308)237-5927,(308)237-5920,10,EDUCATIONAL SERVICE UNITS,wbell@esu10.org
Geraldine Erickson,00-0017-000,EDUCATIONAL SERVICE UNIT 17,207 N MAIN STREET,,AINSWORTH,NE,69210-1353,(402)387-1420,(402)387-1028,17,EDUCATIONAL SERVICE UNITS,gerickson17@esu17.org
Theodore Deturk,00-0002-000,EDUCATIONAL SERVICE UNIT 02,,PO BOX 649,FREMONT,NE,68026-0649,(402)721-7710,(402)721-7712,02,EDUCATIONAL SERVICE UNITS,tdeturk@esu2.org
Paul Calvert,00-0015-000,EDUCATIONAL SERVICE UNIT 15,344 MAIN ST,PO BOX 398,TRENTON,NE,69044-0398,(308)334-5160,(308)334-5581,15,EDUCATIONAL SERVICE UNITS,p.calver@esu15.org
Elizabeth Standish,00-0018-000,EDUCATIONAL SERVICE UNIT 18,,PO BOX 82889,LINCOLN,NE,68501-2889,(402)436-1610,(402)436-1620,18,EDUCATIONAL SERVICE UNITS,lstandis@lps.org
DANIEL SHOEMAKE,00-0006-000,EDUCATIONAL SERVICE UNIT 06,210 5TH ST,,MILFORD,NE,68405-9508,(402)761-3341,(402)761-3279,06,EDUCATIONAL SERVICE UNITS,dan.shoemake@esu6.org
Gregg Robke,00-0004-000,EDUCATIONAL SERVICE UNIT 04,919 16TH ST,PO BOX 310,AUBURN,NE,68305-0310,(402)274-4354,(402)274-4356,04,EDUCATIONAL SERVICE UNITS,grobke@esu4.net
Brenda Mcniff,00-0005-000,EDUCATIONAL SERVICE UNIT 05,900 WEST COURT,,BEATRICE,NE,68310-3526,(402)223-5277,(402)223-5279,05,EDUCATIONAL SERVICE UNITS,bmcniff@esu5.org
Bill Mowinkel,00-0008-000,EDUCATIONAL SERVICE UNIT 08,,PO BOX 89,NELIGH,NE,68756-0089,(402)887-5041,(402)887-4604,08,EDUCATIONAL SERVICE UNITS,bmowinkel@esu8.org
LARIANNE POLK,00-0007-000,EDUCATIONAL SERVICE UNIT 07,2657 44TH AVE,,COLUMBUS,NE,68601-8537,(402)564-5753,(402)563-1121,07,EDUCATIONAL SERVICE UNITS,lpolk@esu7.org
DANNY SCHNOES,00-0003-000,EDUCATIONAL SERVICE UNIT 03,6949 S 110TH ST,,LAVISTA,NE,68128-5722,(402)597-4800,(402)597-4808,03,EDUCATIONAL SERVICE UNITS,dschnoes@esu3.org
Jeffery West,00-0013-000,EDUCATIONAL SERVICE UNIT 13,4215 AVENUE I,,SCOTTSBLUFF,NE,69361-4901,(308)635-3696,(308)635-0680,13,EDUCATIONAL SERVICE UNITS,jwest@esu13.org
Bill Heimann,00-0001-000,EDUCATIONAL SERVICE UNIT 01,211 TENTH ST,,WAKEFIELD,NE,68784-5014,(402)287-2061,(402)287-2065,01,EDUCATIONAL SERVICE UNITS,bheimann@esu1.org
GREG BARNES,00-0011-000,EDUCATIONAL SERVICE UNIT 11,412 W 14TH ST,PO BOX 858,HOLDREGE,NE,68949-0858,(308)995-6585,(308)995-6587,11,EDUCATIONAL SERVICE UNITS,greg.barnes@esu11.org
Shawn Scott,01-0090-000,ADAMS CENTRAL PUBLIC SCHOOLS,,PO BOX 1088,HASTINGS,NE,68902-1088,(402)463-3285,(402)463-6344,09,ADAMS,shawn.scott@adams-central.org
Craig Kautz,01-0018-000,HASTINGS PUBLIC SCHOOLS,1924 WEST A  STREET,,HASTINGS,NE,68901-5190,(402)461-7500,(402)461-7509,09,ADAMS,craig.kautz@hpstigers.org
Rev John Perkinton,01-0702-000,HASTINGS CATHOLIC SCHOOLS,521 N KANSAS,,HASTINGS,NE,68901-7594,(402)462-2105,(402)462-2106,09,ADAMS,fr.john-perkinton@cdolinc.net
Richard Masters,01-0003-000,KENESAW PUBLIC SCHOOLS,110 N 5TH AVE,PO BOX 129,KENESAW,NE,68956-0129,(402)752-3215,(402)752-3579,09,ADAMS,rmasters@kenesawschools.org
Melvin Crowe,01-0123-000,SILVER LAKE PUBLIC SCHOOLS,9405 S LINCOLN AVE,PO BOX 8,ROSELAND,NE,68973-0008,(402)756-6611,(402)756-6613,09,ADAMS,mcrowe@esu9.org
Don   Weber,01-0701-000,CHRIST LUTHERAN ELEMENTARY SCH,13175 W 70TH ST,,JUNIATA,NE,68955-2138,(402)744-4991,(402)744-4971,09,ADAMS,dweber55@yahoo.com
,01-0705-000,ZION LUTHERAN ELEMENTARY SCH,465 S MARIAN RD,,HASTINGS,NE,68901-7401,(402)462-5012,(402)462-5375,09,ADAMS,
,01-4001-000,NEBRASKA YOUTH ACADEMY,4200 W 2ND BLDG 3,,HASTINGS,NE,68901-9700,(402)462-1971,(402)460-3100,02,ADAMS,
SCOTT GREGORY,02-0009-000,NELIGH-OAKDALE SCHOOLS,600 J ST,PO BOX 149,NELIGH,NE,68756-0149,(402)887-4166,(402)887-5322,08,ANTELOPE,sgregory@nowarriors.org
Dale Martin,02-2001-000,NEBRASKA UNIFIED DISTRICT 1,420 E 4TH ST,PO BOX 248,ORCHARD,NE,68764-0248,(402)893-2068,(402)893-2065,08,ANTELOPE,dalemartin@neunified1.org
Daniel Polk,02-0018-000,ELGIN PUBLIC SCHOOLS,101 N 4TH ST,PO BOX 399,ELGIN,NE,68636-0399,(402)843-2455,(402)843-2475,08,ANTELOPE,dan.polk@elgineagles.org
Michael Ashton,02-0701-000,ST BONIFACE ELEMENTARY SCHOOL,,PO BOX 179,ELGIN,NE,68636-0433,(402)843-5325,(402)843-2297,08,ANTELOPE,mwashton@archomaha.org
Michael Ashton,02-0702-000,POPE JOHN XXIII HIGH SCHOOL,303 REMINGTON ST,PO BOX 179,ELGIN,NE,68636-0179,(402)843-5325,(402)843-2297,08,ANTELOPE,mwashton@archomaha.org
Barry Schaeffer,03-0500-000,ARTHUR COUNTY SCHOOLS,111 ELM ST.,PO BOX 145,ARTHUR,NE,69121-0145,(308)764-2253,(308)764-2206,16,ARTHUR,acssuperintendent@arthurcountywolves.org
Lana Sides,04-0001-000,BANNER COUNTY PUBLIC SCHOOLS,200 SCHOOL ST,PO BOX 5,HARRISBURG,NE,69345-0005,(308)436-5262,(308)436-5252,13,BANNER,lsides@bcszone.org
Dale Hafer,05-0071-000,SANDHILLS PUBLIC SCHOOLS,107 GANDY AVE,PO BOX 29,DUNNING,NE,68833-0029,(308)538-2224,(308)538-2228,10,BLAINE,dale.hafer@sandhillsknights.org
Joan Carraher,06-0075-000,RIVERSIDE PUBLIC SCHOOLS,124 SOUTH ASH STREET,220,SPALDING,NE,68665-,(308)497-2431,(308)497-2141,10,BOONE,joan.carraher@riversideps.org
Justin Frederick,06-0017-000,ST EDWARD PUBLIC SCHOOLS,601 CLARK ST,PO BOX C,ST EDWARD,NE,68660-0138,(402)678-2282,(402)678-2284,07,BOONE,jfrederick@sted.esu7.org
Michael Ashton,06-0701-000,ST MICHAEL'S ELEMENTARY SCHOOL,520 W CHURCH ST,,ALBION,NE,68620-1199,(402)395-2926,(402)395-2926,07,BOONE,mwashton@archomaha.org
Nicole Hardwick,06-0001-000,BOONE CENTRAL SCHOOLS,605 S 6TH,PO BOX 391,ALBION,NE,68620-0391,(402)395-2134,(402)395-2137,07,BOONE,nhardwick@boonecentral.esu7.org
Casper Ningen,07-0010-000,HEMINGFORD PUBLIC SCHOOLS,911 NIOBRARA ST,PO BOX 217,HEMINGFORD,NE,69348-0217,(308)487-3328,(308)487-5215,13,BOX BUTTE,cningen@hemingfordschools.org
Troy Unzicker,07-0006-000,ALLIANCE PUBLIC SCHOOLS,1604 SWEETWATER AVE,,ALLIANCE,NE,69301-2668,(308)762-5475,(308)762-8249,13,BOX BUTTE,tunzicker@apschools.org
,07-0701-000,ST AGNES ELEMENTARY SCHOOL,1104 CHEYENNE,,ALLIANCE,NE,69301-2527,(308)762-2315,(308)762-7474,00,BOX BUTTE,
,07-0705-000,IMMANUEL EVANGELICAL LUTHERAN SCHOOL,,PO BOX 715,ALLIANCE,NE,69301-,(308)629-1601,(308)762-8218,00,BOX BUTTE,
Michael Brown,08-0051-000,BOYD COUNTY SCHOOLS,,PO BOX 109,SPENCER,NE,68777-0109,(402)589-1333,(402)589-2041,08,BOYD,mbrown@boydcounty.org
Darrell Peterson,09-0010-000,AINSWORTH COMMUNITY SCHOOLS,520 E 2ND ST,PO BOX 65,AINSWORTH,NE,69210-0065,(402)387-2333,(402)387-0525,17,BROWN,dkpeters@ainsworthschools.org
Kenneth Schroeder,10-0069-000,RAVENNA PUBLIC SCHOOLS,41750 CARTHAGE RD,PO BOX 8400,RAVENNA,NE,68869-8400,(308)452-3249,(308)452-3172,10,BUFFALO,ken.schroeder@ravennabluejays.org
Gregory   Logsdon,10-0701-000,KEARNEY CATHOLIC SCHOOLS,,PO BOX 1866,KEARNEY,NE,68848-1866,(308)234-2610,(308)234-4986,10,BUFFALO,supt@gidiocese.org
Vern Fisher,10-0002-000,GIBBON PUBLIC SCHOOLS,1030 COURT STREET,PO BOX 790,GIBBON,NE,68840-0790,(308)468-6555,(308)468-5164,10,BUFFALO,vern.fisher@gibbonpublic.org
Brian Gegg,10-0019-000,SHELTON PUBLIC SCHOOLS,210 9TH ST,PO BOX 610,SHELTON,NE,68876-0610,(308)647-6742,(308)647-5233,10,BUFFALO,bgegg@sheltonbulldogs.org
,10-0600-000,KEARNEY WEST HIGH SCHOOL,2802 30TH AVE,,KEARNEY,NE,68845-4035,(308)338-2011,(308)865-5350,10,BUFFALO,
,10-0709-000,FAITH CHRISTIAN SCH/KEARNEY,,PO BOX 3048,KEARNEY,NE,68848-3048,(308)236-8744,(308)236-8747,10,BUFFALO,
Jeffrey Vetter,10-0105-000,PLEASANTON PUBLIC SCHOOLS,,PO BOX 190,PLEASANTON,NE,68866-0190,(308)388-2041,(308)388-5502,10,BUFFALO,jvetter@pleasantonbulldogs.org
Kent Edwards,10-0007-000,KEARNEY PUBLIC SCHOOLS,310 W 24TH ST,,KEARNEY,NE,68845-5331,(308)698-8000,(308)698-8001,10,BUFFALO,kenedwards@kearneycats.com
Don   Weber,10-0702-000,ZION LUTHERAN ELEMENTARY SCH,2421 AVENUE C,,KEARNEY,NE,68847-4541,(308)234-3410,(308)236-8100,10,BUFFALO,dweber55@yahoo.com
Tom Moore,10-0119-000,AMHERST PUBLIC SCHOOLS,100 N SYCAMORE,PO BOX 8,AMHERST,NE,68812-0008,(308)826-3131,(308)826-4865,10,BUFFALO,tmoore@amherstbroncos.org
Jason Sullivan,10-0009-000,ELM CREEK PUBLIC SCHOOLS,230 EAST CALKINS AVENUE,PO BOX 490,ELM CREEK,NE,68836-0490,(308)856-4300,(308)856-4907,10,BUFFALO,jason.sullivan@elmcreekschools.org
Jeffery Smith,11-0014-000,OAKLAND CRAIG PUBLIC SCHOOLS,309 N DAVIS,,OAKLAND,NE,68045-1105,(402)685-5661,(402)685-5697,02,BURT,jsmith@ocknights.org
Freddie Hansen,11-0020-000,LYONS-DECATUR NORTHEAST SCHS,,PO BOX 526,LYONS,NE,68038-0526,(402)687-2363,(402)687-2472,02,BURT,fhansen@esu2.org
Dan Gross,11-0001-000,TEKAMAH-HERMAN COMMUNITY SCHS,112 N 13TH ST,,TEKAMAH,NE,68061-1044,(402)374-2157,(402)374-2155,02,BURT,dgross@esu2.org
Samuel Stecher,12-0502-000,EAST BUTLER PUBLIC SCHOOLS,212 S MADISON ST,PO BOX 36,BRAINARD,NE,68626-0036,(402)545-2081,(402)545-2023,07,BUTLER,sstecher@ebutler.esu7.org
Rev John Perkinton,12-0701-000,AQUINAS ST MARYS CATHOLIC SCHS,3420 MN ROAD,PO BOX 149,DAVID CITY,NE,68632-0149,(402)367-3175,(402)367-3176,07,BUTLER,fr.john-perkinton@cdolinc.net
Chad Denker,12-0056-000,DAVID CITY PUBLIC SCHOOLS,750 D ST,,DAVID CITY,NE,68632-1724,(402)367-4590,(402)367-3479,07,BUTLER,denker@dcscouts.org
Richard Hasty,13-0001-000,PLATTSMOUTH COMMUNITY SCHOOLS,1912 OLD HWY 34,,PLATTSMOUTH,NE,68048-5676,(402)296-3361,(402)296-2667,03,CASS,rhasty@pcsd.org
Rev John Perkinton,13-0701-000,ST JOHN THE BAPTIST ELEMENTARY,500 S 18TH ST,,PLATTSMOUTH,NE,68048-2001,(402)296-6230,(402)296-6961,03,CASS,fr.john-perkinton@cdolinc.net
Andrew Farber,13-0032-000,LOUISVILLE PUBLIC SCHOOLS,202 W 3RD,PO BOX 489,LOUISVILLE,NE,68037-0489,(402)234-3585,(402)234-2141,03,CASS,afarber@lpslions.org
Kenneth Heinz,13-0022-000,WEEPING WATER PUBLIC SCHOOLS,204 WEST O,PO BOX 206,WEEPING WATER,NE,68463-0206,(402)267-2445,(402)267-5217,03,CASS,kheinz@weepingwaterps.org
RYAN KNIPPELMEYER,13-0097-000,ELMWOOD-MURDOCK PUBLIC SCHOOLS,300 WYOMING ST,PO BOX 407,MURDOCK,NE,68407-0407,(402)867-2341,(402)867-2009,03,CASS,rknippelmeyer@emknighs.org
BETH JOHNSEN,13-0056-000,CONESTOGA PUBLIC SCHOOLS,104 EAST HIGH ST,PO BOX 184,MURRAY,NE,68409-0184,(402)235-2992,(402)227-2992,03,CASS,bjohnsen@conestogaps.org
Adrian Johnson,14-0008-000,HARTINGTON NEWCASTLE PUBLIC SCHOOLS,,PO BOX 75,HARTINGTON,NE,68739-0075,(402)254-3947,(402)254-3945,01,CEDAR,adrian@hnscats.org
Jeffery Hoesing,14-0045-000,RANDOLPH PUBLIC SCHOOLS,207 N PIERCE ST,PO BOX 755,RANDOLPH,NE,68771-0755,(402)337-0252,(402)337-0235,01,CEDAR,jeff.hoesing@rcards.org
RANDALL KLOOZ,14-0054-000,LAUREL-CONCORD-COLERIDGE SCHOOL,502 WAKEFIELD ST,PO BOX 8,LAUREL,NE,68745-0008,(402)256-3133,(402)256-9465,01,CEDAR,rklooz@laurel.esu1.org
Jeffrey Messersmith,14-0101-000,WYNOT PUBLIC SCHOOLS,,PO BOX 157,WYNOT,NE,68792-0157,(402)357-2121,(402)357-2524,01,CEDAR,jeff.messersmith@wynotpublicschools.org
Michael Ashton,14-0701-000,HOLY TRINITY ELEMENTARY SCHOOL,502 S BROADWAY,PO BOX 278,HARTINGTON,NE,68739-0278,(402)254-6496,(402)254-3976,01,CEDAR,mwashton@archomaha.org
Michael Ashton,14-0702-000,CEDAR CATHOLIC HIGH SCHOOL,401 S BROADWAY,PO BOX 15,HARTINGTON,NE,68739-0015,(402)254-3906,(402)254-3976,01,CEDAR,mwashton@archomaha.org
Michael Ashton,14-0703-000,WEST CATHOLIC ELEMENTARY SCH,303 OMAHA ST,PO BOX 167,FORDYCE,NE,68736-0167,(402)357-3507,(402)357-3551,01,CEDAR,mwashton@archomaha.org
Michael Ashton,14-0704-000,EAST CATHOLIC ELEMENTARY SCH,108 W 889 RD,,HARTINGTON,NE,68739-6079,(402)254-2146,(402)254-3758,01,CEDAR,mwashton@archomaha.org
Joseph Lefdal,15-0010-000,CHASE COUNTY SCHOOLS,520 E 9TH ST,PO BOX 577,IMPERIAL,NE,69033-0577,(308)882-4304,(308)882-5629,15,CHASE,jlefdal@chasecountyschools.org
Randy Geier,15-0536-000,WAUNETA-PALISADE PUBLIC SCHS,214 W WICHITA,PO BOX 368,WAUNETA,NE,69045-0368,(308)394-5700,(308)394-5962,15,CHASE,rgeier724@gmail.com
,16-0701-000,ZION LUTHERAN ELEMENTARY SCH,224 N GOVERNMENT ST,,VALENTINE,NE,69201-1924,(402)376-2745,(402)376-2720,17,CHERRY,
Adam Lambert,16-0030-000,CODY-KILGORE PUBLIC SCHS,360 W 4TH ST,PO BOX 216,CODY,NE,69211-0216,(402)823-4190,(402)823-4275,17,CHERRY,alambert@cody-kilgore.com
Jamie Isom,16-0006-000,VALENTINE COMMUNITY SCHOOLS,431 N GREEN ST,,VALENTINE,NE,69201-1969,(402)376-1780,(402)376-2736,17,CHERRY,jisom@vcsbadger.net
Rodney Jay Ehler,17-0001-000,SIDNEY PUBLIC SCHOOLS,1101 21ST AVE,,SIDNEY,NE,69162-1948,(308)254-5855,(308)254-5756,13,CHEYENNE,jay.ehler@raidermail.org
Michael Williams,17-0009-000,POTTER-DIX PUBLIC SCHOOLS,303 WALNUT,PO BOX 189,POTTER,NE,69156-0415,(308)879-4434,(308)879-4566,13,CHEYENNE,mike.williams@pdcoyotes.org
Loreda Miller,17-0003-000,LEYTON PUBLIC SCHOOLS,504 MAIN ST,PO BOX 297,DALTON,NE,69131-0297,(308)377-2301,(308)377-2304,13,CHEYENNE,lorrie.miller@leytonwarriors.org
Dana Wiseman,18-0002-000,SUTTON PUBLIC SCHOOLS,1107 N SAUNDERS,PO BOX 590,SUTTON,NE,68979-0590,(402)773-5569,(402)773-5578,09,CLAY,dwiseman@spsne.org
,18-0701-000,SUTTON CHRISTIAN SCHOOL,1004 E. ASH ST,PO BOX 321,SUTTON,NE,68979-0321,(402)773-4845,,09,CLAY,
Michael Derr,18-0011-000,HARVARD PUBLIC SCHOOLS,506 E NORTH ST,PO BOX 100,HARVARD,NE,68944-0100,(402)772-2171,(402)772-2204,09,CLAY,mderr@harvardcardinals.org
Dan Hoesing,19-0123-000,SCHUYLER COMMUNITY SCHOOLS,401 ADAM ST,,SCHUYLER,NE,68661-2400,(402)352-3527,(402)352-5552,07,COLFAX,dan.hoesing@schuylercommunityschools.org
,19-0703-000,ST JOHN NEUMANN ELEMENTARY SCH,,PO BOX 457,CLARKSON,NE,68629-0457,(402)892-3474,(402)892-3474,07,COLFAX,
Rich Lemburg,19-0058-000,CLARKSON PUBLIC SCHOOLS,649 CHERRY ST,PO BOX 140,CLARKSON,NE,68629-0140,(402)892-3454,(402)892-3455,07,COLFAX,rlemburg@clarkson.esu7.org
Jeffrey Walburn,19-0070-000,HOWELLS-DODGE CONSOLIDATED SCHOOLS,P.O. BOX 159,PO BOX 159,HOWELLS,NE,68641-4133,(402)986-1621,(402)986-1261,07,COLFAX,jwalburn@hdcjags.org
Michael Ashton,19-0704-000,HOWELLS COMMUNITY CATHOLIC SCHOOL,114 N 6TH ST,,HOWELLS,NE,68641-4038,(402)986-1689,(402)986-1689,07,COLFAX,mwashton@archomaha.org
Stephanie Petersen,19-0039-000,LEIGH COMMUNITY SCHOOLS,310 SHORT ST,PO BOX 98,LEIGH,NE,68643-0098,(402)487-2228,(402)487-2607,07,COLFAX,spetersen@leigh.esu7.org
Chad Boyer,20-0030-000,WISNER-PILGER PUBLIC SCHOOLS,801 18TH ST,PO BOX 580,WISNER,NE,68791-0580,(402)529-3249,(402)529-3477,02,CUMING,cboyer@igators.org
Michael Ashton,20-0710-000,GUARDIAN ANGELS CENTRAL CATHOLIC SCHOOLS,419 E DECATUR,,WEST POINT,NE,68788-1597,(402)372-5326,(402)372-5327,02,CUMING,mwashton@archomaha.org
Jon Cerny,20-0020-000,BANCROFT-ROSALIE COMM SCHOOLS,708 MAIN ST,PO BOX 129,BANCROFT,NE,68004-0129,(402)648-3336,(402)648-3338,02,CUMING,jcerny@esu2.org
Don   Weber,20-0703-000,ST PAUL LUTHERAN ELEM SCHOOL,325 N COLFAX,,WEST POINT,NE,68788-1426,(402)372-2355,(402)372-2742,00,CUMING,dweber55@yahoo.com
Bill Mcallister,20-0001-000,WEST POINT PUBLIC SCHOOLS,1200 E WASHINGTON,,WEST POINT,NE,68788-2505,(402)372-5860,(402)372-5458,02,CUMING,wmcallister@wpcadets.org
Wayne Ruppert,21-0084-000,SARGENT PUBLIC SCHOOLS,400 N 5TH ST,PO BOX 366,SARGENT,NE,68874-0366,(308)527-4119,(308)527-3332,10,CUSTER,wruppert@loupcountyschools.org
David Mroczek,21-0044-000,ANSLEY PUBLIC SCHOOLS,,PO BOX 370,ANSLEY,NE,68814-0370,(308)935-1121,(308)935-9103,10,CUSTER,dave.mroczek@esu10.org
Dawn Lewis,21-0089-000,ARNOLD PUBLIC SCHOOLS,405 N HASKELL,PO BOX 399,ARNOLD,NE,69120-0399,(308)848-2226,(308)848-2201,10,CUSTER,dawnlewis@esu10.org
Dawn Lewis,21-0180-000,CALLAWAY PUBLIC SCHOOLS,,PO BOX 280,CALLAWAY,NE,68825-5202,(308)836-2272,(308)836-2771,10,CUSTER,dawnlewis@esu10.org
Thomas Bailey,21-0025-000,BROKEN BOW PUBLIC SCHOOLS,323 N 7TH AVE,,BROKEN BOW,NE,68822-1718,(308)872-6821,(308)872-2751,10,CUSTER,tom.bailey@bbps.org
Patrick Osmond,21-0015-000,ANSELMO-MERNA PUBLIC SCHOOLS,,PO BOX 68,MERNA,NE,68856-0068,(308)643-2224,(308)643-2243,10,CUSTER,pat.osmond@amcoyotes.org
Gregg Cruickshank,22-0031-000,HOMER COMMUNITY SCHOOLS,212 S 3RD,PO BOX 340,HOMER,NE,68030-0340,(402)698-2377,(402)698-2379,01,DAKOTA,greggcruickshank@homerknights.org
Michael Ashton,22-0701-000,ST MICHAEL ELEMENTARY SCHOOL,1315 1ST AVE,,SO SIOUX CITY,NE,68776-2205,(402)494-1526,(402)494-4283,01,DAKOTA,mwashton@archomaha.org
Todd Strom,22-0011-000,SO SIOUX CITY COMMUNITY SCHS,210 WEST 39TH ST,PO BOX 158,SO SIOUX CITY,NE,68776-0158,(402)494-2425,(402)494-3916,01,DAKOTA,todd.strom@ssccardinals.org
,23-0601-000,PINE RIDGE JOB CORPS,15710 HWY 385,,CHADRON,NE,69337-7505,(308)432-8650,(308)432-8655,13,DAWES,
,23-0701-000,PRAIRIE VIEW S D A SCHOOL,602 BORDEAUX ST,,CHADRON,NE,69337-2611,(308)432-4228,(308)432-6517,00,DAWES,
,23-0704-000,TRUNK BUTTE CHRISTIAN SCHOOL,5240 HWY 20,,CHADRON,NE,69337-6942,(308)432-3717,(308)000-0000,13,DAWES,
,23-0705-000,COLLEGE HEIGHTS ACADEMY,237 MOREHEAD,,CHADRON,NE,69337-,(308)430-1106,,13,DAWES,
Caroline Winchester,23-0002-000,CHADRON PUBLIC SCHOOLS,602 E 10TH,,CHADRON,NE,69337-2859,(308)432-0700,(308)432-0702,13,DAWES,caroline.winchester@chadronschools.net
Kirk Hughes,23-0071-000,CRAWFORD PUBLIC SCHOOLS,908 5TH ST,,CRAWFORD,NE,69339-1204,(308)665-1537,(308)665-1909,13,DAWES,kirk.hughes@cpsrams.org
John Hakonson,24-0001-000,LEXINGTON PUBLIC SCHOOLS,300 S WASHINGTON ST,PO BOX 890,LEXINGTON,NE,68850-0890,(308)324-4681,(308)324-2528,10,DAWSON,john.hakonson@lexschools.org
MICHAEL TEAHON,24-0020-000,GOTHENBURG PUBLIC SCHOOLS,1322 AVENUE I,,GOTHENBURG,NE,69138-1799,(308)537-3651,(308)537-3965,10,DAWSON,michael.teahon@goswedes.org
Kevin Finkey,24-0101-000,SUMNER-EDDYVILLE-MILLER SCHS,205 E 5TH AVE,PO BOX 126,SUMNER,NE,68878-0126,(308)752-2925,(308)752-2600,10,DAWSON,kfinkey@semmustangs.org
Joel Applegate,24-0011-000,COZAD COMMUNITY SCHOOLS,1910 MERIDIAN AVE,,COZAD,NE,69130-1159,(308)784-2745,(308)217-4504,10,DAWSON,joel.applegate@cozadschools.net
Mark Aten,24-0004-000,OVERTON PUBLIC SCHOOLS,401 7TH ST,PO BOX 310,OVERTON,NE,68863-0310,(308)987-2424,(308)987-2349,10,DAWSON,mark.aten@overtoneagles.org
Ron Howard,25-0025-000,CREEK VALLEY SCHOOLS,6TH & HAYWARD,PO BOX 608,CHAPPELL,NE,69129-0608,(308)874-2911,(308)874-2602,13,DEUEL,ron.howard@cvsstorm.com
David Spencer,25-0095-000,SOUTH PLATTE PUBLIC SCHOOLS,,PO BOX 457,BIG SPRINGS,NE,69122-0457,(308)889-3622,(308)889-3523,16,DEUEL,dspencer@southplatteschools.com
Jody Phillips,26-0001-000,PONCA PUBLIC SCHOOLS,505 3RD ST,PO BOX 568,PONCA,NE,68770-0568,(402)755-5700,(402)755-5773,01,DIXON,jodyphillips@poncaschool.org
Lindsey Burback,26-0561-000,EMERSON-HUBBARD PUBLIC SCHOOLS,109 W THIRD ST,PO BOX 9,EMERSON,NE,68733-0009,(402)695-2621,(402)695-2622,01,DIXON,lburback@ehpirates.org
Michael Pattee,26-0070-000,ALLEN CONSOLIDATED SCHOOLS,126 E 5TH,PO BOX 190,ALLEN,NE,68710-0190,(402)635-2484,(402)635-2331,01,DIXON,mpattee@allenschools.org
Don   Weber,27-0702-000,TRINITY LUTHERAN ELEM SCHOOLS,1546 N LUTHER RD,,FREMONT,NE,68025-3784,(402)721-5959,(402)721-5537,02,DODGE,dweber55@yahoo.com
Jeremy Klein,27-0594-000,LOGAN VIEW PUBLIC SCHOOLS,2163 COUNTY ROAD G,,HOOPER,NE,68031-1259,(402)654-3317,(402)654-3699,02,DODGE,jklein@loganview.org
Michael Ashton,27-0701-000,ARCHBISHOP BERGAN SCHOOL,545 E 4TH ST,,FREMONT,NE,68025-5105,(402)721-9683,(402)721-5366,02,DODGE,mwashton@archomaha.org
Michael Ashton,27-0704-000,ST WENCESLAUS ELEM SCHOOL,212 N LINDEN ST,,DODGE,NE,68633-3519,(402)693-2819,(402)693-2819,07,DODGE,mwashton@archomaha.org
Michael Ashton,27-0706-000,ARCHBISHOP BERGAN ELEMENTARY,1515 N JOHNSON ROAD,,FREMONT,NE,68025-5105,(402)721-9766,(402)721-1180,02,DODGE,mwashton@archomaha.org
Mark Shepard,27-0001-000,FREMONT PUBLIC SCHOOLS,130 E 9TH STREET,,FREMONT,NE,68025-1401,(402)727-3000,(402)727-3002,02,DODGE,mark.shepard@fpsmail.org
Ginger Meyer,27-0062-000,SCRIBNER-SNYDER COMMUNITY SCHS,400 PEBBLE,PO BOX L,SCRIBNER,NE,68057-0549,(402)664-2567,(402)664-2708,02,DODGE,gingermeyer@sstrojans.org
Daniel Endorf,27-0595-000,NORTH BEND CENTRAL PUBLIC SCHS,,PO BOX 160,NORTH BEND,NE,68649-0160,(402)652-3268,(402)652-8348,02,DODGE,dendorf@nbtigers.org
Robert   Reznicek,28-0703-000,BOYS TOWN SCHOOLS,13803 FLANAGAN BLVD,,BOYS TOWN,NE,68010-0703,(402)498-1853,(402)498-3246,00,DOUGLAS,robert.reznicek@boystown.org
MARK EVANS,28-0001-000,OMAHA PUBLIC SCHOOLS,3215 CUMING ST,,OMAHA,NE,68131-2024,(402)557-2222,(402)557-2019,19,DOUGLAS,mark.evans@ops.org
Terrence Haack,28-0059-000,BENNINGTON PUBLIC SCHOOLS,11620 N 156TH ST,PO BOX 309,BENNINGTON,NE,68007-0265,(402)238-3044,(402)238-2185,03,DOUGLAS,thaack@bennps.org
Michelle   Lundgren,28-0796-000,OMAHA STREET SCHOOL,3223 NORTH 45TH ST,,OMAHA,NE,68104-3711,(402)451-5234,(402)451-7048,00,DOUGLAS,mlundgren@graceu.edu
Michael Ashton,28-0702-000,JESUIT ACADEMY,2311 N 22ND ST,,OMAHA,NE,68110-2207,(402)346-4464,(402)341-1817,03,DOUGLAS,mwashton@archomaha.org
Michael Ashton,28-0708-000,ST STEPHEN THE MARTYR SCHOOL,16701 S ST,,OMAHA,NE,68135-2309,(402)896-0754,(402)861-4640,03,DOUGLAS,mwashton@archomaha.org
Michael Ashton,28-0709-000,ALL SAINTS CATHOLIC SCHOOL,1335 S 10TH ST,,OMAHA,NE,68108-3603,(402)346-5757,(402)346-8794,00,DOUGLAS,mwashton@archomaha.org
Michael Ashton,28-0712-000,CHRIST THE KING CATHOLIC SCH,831 S 88TH ST,,OMAHA,NE,68114-4200,(402)391-0977,(402)391-2418,00,DOUGLAS,mwashton@archomaha.org
Michael Ashton,28-0716-000,DUCHESNE ACADEMY,3601 BURT ST,,OMAHA,NE,68131-1999,(402)558-3800,(402)558-0051,03,DOUGLAS,mwashton@archomaha.org
Michael Ashton,28-0723-000,ST PATRICK'S CATHOLIC SCHOOL,20500 W MAPLE,,ELKHORN,NE,68022-0010,(402)289-5407,(402)763-9530,00,DOUGLAS,mwashton@archomaha.org
Michael Ashton,28-0726-000,MARIAN HIGH SCHOOL,7400 MILITARY AVENUE,,OMAHA,NE,68134-3398,(402)571-2618,(402)571-1952,00,DOUGLAS,mwashton@archomaha.org
Michael Ashton,28-0727-000,MARY OUR QUEEN ELEM SCHOOL,3405 S 119TH ST,,OMAHA,NE,68144-4631,(402)333-8663,(402)334-3948,03,DOUGLAS,mwashton@archomaha.org
Michael Ashton,28-0729-000,ST VINCENT DE PAUL ELEMENTARY,14330 EAGLE RUN DR,,OMAHA,NE,68164-5425,(402)492-2111,(402)496-9933,03,DOUGLAS,mwashton@archomaha.org
Michael Ashton,28-0733-000,MT MICHAEL BENEDICTINE H S,22520 MT MICHAEL RD,,ELKHORN,NE,68022-3400,(402)289-2541,(402)289-4539,03,DOUGLAS,mwashton@archomaha.org
Michael Ashton,28-0736-000,OUR LADY OF LOURDES ELEM SCH,2124 S 32ND AVE,,OMAHA,NE,68105-3198,(402)341-5604,(402)341-9957,03,DOUGLAS,mwashton@archomaha.org
Michael Ashton,28-0740-000,RONCALLI CATHOLIC HIGH SCHOOL,6401 SORENSEN PARKWAY,,OMAHA,NE,68152-2241,(402)571-7670,(402)571-3216,03,DOUGLAS,mwashton@archomaha.org
Michael Ashton,28-0748-000,ST CECILIA CATHEDRAL SCHOOL,3869 WEBSTER ST,,OMAHA,NE,68131-1899,(402)556-6655,(402)502-3048,00,DOUGLAS,mwashton@archomaha.org
Michael Ashton,28-0752-000,ST JAMES-SETON ELEMENTARY SCH,4720 N 90TH ST,,OMAHA,NE,68134-2796,(402)572-0339,(402)572-0347,00,DOUGLAS,mwashton@archomaha.org
Michael Ashton,28-0753-000,ST JOAN OF ARC ELEMENTARY SCH,7430 HASCALL,,OMAHA,NE,68124-3499,(402)393-2314,(402)393-4405,03,DOUGLAS,mwashton@archomaha.org
Michael Ashton,28-0755-000,ST MARGARET MARY ELEM SCHOOL,123 N 61ST ST,,OMAHA,NE,68132-2196,(402)551-6663,(402)551-5631,03,DOUGLAS,mwashton@archomaha.org
Michael Ashton,28-0759-000,STS PETER & PAUL ELEM SCHOOL,3619 X ST,,OMAHA,NE,68107-3247,(402)731-4713,(402)731-2633,00,DOUGLAS,mwashton@archomaha.org
Michael Ashton,28-0761-000,ST PIUS X / ST LEO ELEMENTARY,6905 BLONDO ST,,OMAHA,NE,68104-4600,(402)551-6667,(402)551-8123,03,DOUGLAS,mwashton@archomaha.org
Michael Ashton,28-0763-000,ST ROBERT BELLARMINE ELEM,11900 PACIFIC ST,,OMAHA,NE,68154-3469,(402)334-1929,(402)333-7188,00,DOUGLAS,mwashton@archomaha.org
Michael Ashton,28-0765-000,ST THOMAS MORE ELEM SCHOOL,3515 S 48TH AVE,,OMAHA,NE,68106-4532,(402)551-9504,(402)551-9507,03,DOUGLAS,mwashton@archomaha.org
Victor Fordyce,28-0767-000,OMAHA CHRISTIAN ACADEMY,10244 WIESMAN DRIVE,,OMAHA,NE,68134-1063,(402)399-9565,(402)399-0248,03,DOUGLAS,vfordyce@ocamail.org
Kristi   Gibbs,28-0706-000,BROWNELL TALBOT SCHOOLS,400 N HAPPY HOLLOW BLVD,,OMAHA,NE,68132-2198,(402)556-3772,(402)553-2994,03,DOUGLAS,kristi.gibbs@brownell.edu
JAMES SUTFIN,28-0017-000,MILLARD PUBLIC SCHOOLS,5606 S 147TH ST,,OMAHA,NE,68137-2604,(402)715-8200,(402)715-8409,03,DOUGLAS,jsutfin@mpsomaha.org
BARY HABROCK,28-0010-000,ELKHORN PUBLIC SCHOOLS,20650 GLENN ST,PO BOX 439,ELKHORN,NE,68022-0439,(402)289-2579,(402)289-2585,03,DOUGLAS,bhabrock@epsne.org
Don   Weber,28-0754-000,CONCORDIA LUTHERAN SCHOOLS OF OMAHA,15656 FORT STREET,,OMAHA,NE,68116-3201,(402)965-3534,(402)965-9310,00,DOUGLAS,dweber55@yahoo.com
MARK ADLER,28-0054-000,RALSTON PUBLIC SCHOOLS,8545 PARK DR,,RALSTON,NE,68127-3690,(402)331-4700,(402)331-4843,03,DOUGLAS,mark_adler@ralstonschools.org
BLANE MCCANN,28-0066-000,WESTSIDE COMMUNITY SCHOOLS,909 S 76TH ST,,OMAHA,NE,68114-4599,(402)390-2100,(402)390-2120,03,DOUGLAS,mccann.blane@westside66.net
Patrick   Slattery,28-0713-000,CREIGHTON PREPARATORY SCHOOL,7400 WESTERN AVE,,OMAHA,NE,68114-1878,(402)393-1190,(402)343-1889,00,DOUGLAS,pjslattery@archomaha.org
Patrick   Slattery,28-0741-000,SACRED HEART ELEMENTARY SCHOOL,2205 BINNEY ST,,OMAHA,NE,68110-2037,(402)455-5858,(402)451-7480,19,DOUGLAS,pjslattery@archomaha.org
Melissa Poloncic,28-0015-000,DOUGLAS CO WEST COMMUNITY SCHS,,PO BOX 378,VALLEY,NE,68064-0378,(402)359-2583,(402)359-4371,03,DOUGLAS,mpoloncic@dcwest.org
,28-0602-000,NE CORRECTIONAL YOUTH FACILITY,2610 N 20TH ST EAST,,OMAHA,NE,68110-2730,(402)636-8690,,19,DOUGLAS,
,28-0707-000,PHOENIX ACADEMY DAY SCHOOL,1110 N 66TH STREET,,OMAHA,NE,68132-1108,(402)390-0556,(402)614-1716,00,DOUGLAS,
,28-0711-000,CHILDREN'S ROOM,7302 BURT STREET,,OMAHA,NE,68114-3212,(402)551-1440,(402)397-5417,00,DOUGLAS,
,28-0718-000,GETHSEMANE LUTHERAN ELEMENTARY,4040 N 108TH ST,,OMAHA,NE,68164-2349,(402)493-2550,(402)493-5427,03,DOUGLAS,
,28-0719-000,GOOD SHEPHERD ELEMENTARY SCH,5071 CENTER,,OMAHA,NE,68106-3155,(402)553-6760,,00,DOUGLAS,
,28-0720-000,HOLY CROSS CATHOLIC SCHOOL,1502 S 48TH ST,,OMAHA,NE,68106-2599,(402)551-3773,(402)556-1896,03,DOUGLAS,
,28-0722-000,HOLY NAME ELEMENTARY SCHOOL,2901 FONTENELLE BLVD,,OMAHA,NE,68104-4501,(402)451-5403,(402)453-7950,00,DOUGLAS,
,28-0725-000,MADONNA SCHOOL,6402 N 71ST PLAZA,,OMAHA,NE,68104-4615,(402)556-1883,(402)556-7332,19,DOUGLAS,
,28-0728-000,OMAHA MEMORIAL SCHOOL OF S D A,840 N 72ND,,OMAHA,NE,68114-3241,(402)397-4642,(402)393-0125,00,DOUGLAS,
,28-0730-000,MERCY HIGH SCHOOL,1501 S 48TH ST,,OMAHA,NE,68106-2598,(402)553-9424,(402)553-0394,00,DOUGLAS,
,28-0731-000,MONTESSORI EDUCATIONAL CNTRS,2111 S. 67TH STREET, #300,OMAHA,NE,68106-,(402)393-1311,(402)513-8196,00,DOUGLAS,
,28-0737-000,MONTESSORI LEARN CTR OF DUNDEE,5103 CAPITOL AVE,,OMAHA,NE,68132-2851,(402)558-6018,(000)000-0000,00,DOUGLAS,
,28-0744-000,PRIMROSE SCHOOL OF LEGACY,17440 WRIGHT STREET,,OMAHA,NE,68130-2896,(402)334-3337,(402)884-8816,00,DOUGLAS,
,28-0746-000,ST BERNARD ELEMENTARY SCHOOL,3604 N 65TH ST,,OMAHA,NE,68104-3218,(402)553-4993,(402)551-4939,00,DOUGLAS,
,28-0749-000,SKUTT CATHOLIC HIGH SCHOOL,3131 S 156TH ST,,OMAHA,NE,68130-1907,(402)333-0818,(402)333-1790,03,DOUGLAS,
,28-0751-000,ST GERALD ELEMENTARY SCHOOL,7857 LAKEVIEW ST,,RALSTON,NE,68127-2832,(402)331-4223,(402)331-4523,03,DOUGLAS,
,28-0757-000,ST PAUL LUTHERAN ELEM SCHOOL,5020 GRAND AVE,,OMAHA,NE,68104-2367,(402)451-2865,(402)451-6816,00,DOUGLAS,
,28-0760-000,ST PHILIP NERI ELEM SCHOOL,8202 N 31ST STREET,,OMAHA,NE,68112-2204,(402)315-3500,(402)453-3620,03,DOUGLAS,
,28-0766-000,ALLELUIA! KINDERGARTEN AND PRESCHOOLS,1200 N 181 COURT,,ELKHORN,NE,68022-3813,(402)943-9165,(402)333-4482,03,DOUGLAS,
,28-0768-000,LEGACY PRIMARY SCHOOL,6860 NORTH 166TH AVENUE,,OMAHA,NE,68116-,(402)884-2242,(402)884-2230,03,DOUGLAS,
,28-0775-000,NELSON MANDELA ELEMENTARY,6316 NO. 30 STREET,,OMAHA,NE,68111-1208,(402)991-1444,,03,DOUGLAS,
,28-0776-000,FRIEDEL JEWISH ACADEMY,335 S 132ND ST,,OMAHA,NE,68154-2106,(402)334-0517,(402)334-6455,03,DOUGLAS,
,28-0780-000,LIFEGATE CHRISTIAN SCHOOL,15555 WEST DODGE RD,,OMAHA,NE,68154-2099,(402)333-5153,(402)758-6980,00,DOUGLAS,
,28-0782-000,LA BELLA VITA MONTESSORI SCHOOL, LLC,2207 N 168TH AVENUE,,OMAHA,NE,,(402)502-5396,,00,DOUGLAS,
,28-0790-000,MONTESSORI PARENT'S CO-OP,3713 N. 52ND ST.,,OMAHA,NE,68104-,(402)345-2001,(402)345-6438,00,DOUGLAS,
,28-0791-000,ST WENCESLAUS SCHOOL,15353 PACIFIC ST,,OMAHA,NE,68154-2871,(402)330-4356,(402)884-4417,03,DOUGLAS,
,28-4004-000,NOVA ALTERNATIVE SCHOOL,8502 MORMON BRIDGE RD,,OMAHA,NE,68152-1929,(402)991-8551,(402)344-2569,00,DOUGLAS,
,28-4005-000,BOYS TOWN INTERIM PRG SCHS,13803 FLANAGAN BLVD,,BOYS TOWN,NE,68010-7505,(402)498-7273,(402)964-7171,00,DOUGLAS,
,28-4007-000,DOUGLAS COUNTY YOUTH CENTER,1301 S 41ST STREET,,OMAHA,NE,68105-1862,(402)444-4767,(402)444-4252,19,DOUGLAS,
,28-4008-000,UTA HALEE ACADEMY PROGRAM,10625 CALHOUN ROAD,,OMAHA,NE,68112-0034,(402)905-9656,(402)000-0000,00,DOUGLAS,
,28-4015-000,ALEGENT/IMMANUEL RTC,6901 N 72ND STREET,,OMAHA,NE,68122-1709,(402)572-2040,(402)572-2895,00,DOUGLAS,
,28-4020-000,YOUTH LINKS-HEARTLAND FAMILY,4318 FORT STREET,,OMAHA,NE,68111-,(402)552-7030,,00,DOUGLAS,
,28-4021-000,OMAHA HOME FOR BOYS SCHOOL,4343 N 52ND ST,,OMAHA,NE,68104-,(402)457-7108,(402)457-7024,00,DOUGLAS,
James Kent,29-0117-000,DUNDY CO STRATTON PUBLIC SCHS,400 9TH AVE WEST,PO BOX 586,BENKELMAN,NE,69021-0586,(308)423-2738,(308)423-2711,15,DUNDY,jim@dcstigers.org
Bryce Jorgenson,30-0054-000,SHICKLEY PUBLIC SCHOOLS,104 E MURRAY,PO BOX 407,SHICKLEY,NE,68436-0407,(402)627-3375,(402)627-2003,06,FILLMORE,bjorgenson@longhornpower.org
,30-0600-000,GENEVA NORTH SCHOOL,855 NORTH 1ST,,GENEVA,NE,68361-9547,(402)759-3164,(402)759-4804,06,FILLMORE,
,30-0701-000,GRACE LUTHERAN ELEMENTARY SCH,434 N 16TH ST,,GENEVA,NE,68361-1601,(402)759-4517,,06,FILLMORE,
Mark Norvell,30-0025-000,FILLMORE CENTRAL PUBLIC SCHS,1410 L STREET,,GENEVA,NE,68361-1599,(402)759-4955,(402)759-4038,06,FILLMORE,mark.norvell@fillmorecentral.org
Paul Sheffield,30-0001-000,EXETER-MILLIGAN PUBLIC SCHOOLS,318 S RIVER AVE,PO BOX 139,EXETER,NE,68351-0139,(402)266-5911,(402)266-4811,06,FILLMORE,psheffie@emwolves.net
Candace Conradt,31-0506-000,FRANKLIN PUBLIC SCHOOLS,1001 M ST,,FRANKLIN,NE,68939-1120,(308)425-6283,(308)425-6553,11,FRANKLIN,candace.conradt@fpsflyers.org
Alan Garey,32-0125-000,MEDICINE VALLEY PUBLIC SCHOOLS,303 CROOK AVE,PO BOX 9,CURTIS,NE,69025-0009,(308)367-4106,(308)367-4108,15,FRONTIER,agarey@medvalley.org
Cynthia Huff,32-0046-000,MAYWOOD PUBLIC SCHOOLS,,PO BOX 46,MAYWOOD,NE,69038-0046,(308)362-4223,(308)362-4454,15,FRONTIER,cynthia.huff@maywoodtigers.org
Steve Sampy,32-0095-000,EUSTIS-FARNAM PUBLIC SCHOOLS,504 N INGALL ST,PO BOX 9,EUSTIS,NE,69028-0009,(308)486-3991,(308)486-5659,11,FRONTIER,steve.sampy@efknights.org
Darren Tobey,33-0540-000,SOUTHERN VALLEY SCHOOLS,43739 HWY 89,,OXFORD,NE,68967-2711,(308)868-2222,(308)868-2223,11,FURNAS,darren.tobey@sveagles.org
George Griffith,33-0018-000,ARAPAHOE PUBLIC SCHOOLS,610 WALNUT,PO BOX 360,ARAPAHOE,NE,68922-0360,(308)962-5458,(308)962-7481,11,FURNAS,george.griffith@arapahoewarriors.org
Gregory Shepard,33-0021-000,CAMBRIDGE PUBLIC SCHOOLS,1003 NELSON ST,PO BOX 100,CAMBRIDGE,NE,69022-0100,(308)697-3322,(308)697-4880,11,FURNAS,gregory.shepard@cpstrojans.org
Michael Meyerle,34-0100-000,DILLER-ODELL PUBLIC SCHOOLS,506 PERRY ST,PO BOX 188,ODELL,NE,68415-0188,(402)766-4171,(402)766-4211,05,GAGE,mmeyerle@dillerodell.org
PATRICK NAUROTH,34-0015-000,BEATRICE PUBLIC SCHOOLS,320 N 5TH STREET,,BEATRICE,NE,68310-2957,(402)223-1500,(402)223-1509,05,GAGE,pnauroth@bpsnebr.org
Rev John Perkinton,34-0701-000,ST JOSEPH ELEMENTARY SCHOOL,420 N 6TH ST,,BEATRICE,NE,68310-2999,(402)223-5033,,05,GAGE,fr.john-perkinton@cdolinc.net
Don   Weber,34-0702-000,ST PAUL'S LUTHERAN ELEM SCHOOL,930 PRAIRIE LANE ST,,BEATRICE,NE,68310-2647,(402)223-3414,(402)223-3418,05,GAGE,dweber55@yahoo.com
Randy Page,34-0034-000,FREEMAN PUBLIC SCHOOLS,415 EIGHTH ST,PO BOX 259,ADAMS,NE,68301-0259,(402)988-2525,(402)988-3475,05,GAGE,rpage@freemanschools.net
Christopher Prososki,34-0001-000,SOUTHERN SCHOOL DIST 1,115 S 11TH ST,PO BOX 237,WYMORE,NE,68466-0237,(402)645-3326,(402)645-8049,05,GAGE,cprososki@southernschools.org
Paula Sissel,35-0001-000,GARDEN COUNTY SCHOOLS,200 W 4TH ST,PO BOX 230,OSHKOSH,NE,69154-0230,(308)772-3242,(308)772-3039,13,GARDEN,psissel@gceagles.org
Daniel Bird,36-0100-000,BURWELL PUBLIC SCHOOLS,190 I ST,PO BOX 670,BURWELL,NE,68823-0670,(308)346-4150,(308)346-5430,10,GARFIELD,dan.bird@burwellpublicschools.com
Daren Hatch,37-0030-000,ELWOOD PUBLIC SCHOOLS,502 FIRST AVE,PO BOX 107,ELWOOD,NE,68937-0107,(308)785-2491,(308)785-2322,11,GOSPER,daren.hatch@elwoodpirates.org
Troy Unzicker,38-0011-000,HYANNIS AREA SCHOOLS,332 EAST HWY 2,PO BOX 286,HYANNIS,NE,69350-0286,(308)458-2202,(308)458-2227,16,GRANT,tunzicker@apschools.org
Amy Malander,39-0060-000,CENTRAL VALLEY PUBLIC SCHOOLS,304 NORTH SHANNON STREET,PO BOX 160,GREELEY,NE,68842-0160,(308)428-3145,(308)428-5395,10,GREELEY,amy.malander@centralvps.org
,39-0702-000,SPALDING ACADEMY,130 W MARGUERITE,PO BOX 310,SPALDING,NE,68665-0310,(308)497-2103,(308)497-2105,10,GREELEY,
,40-0701-000,CENTRAL CATHOLIC SCHOOLS,1200 RUBY AVE,,GRAND ISLAND,NE,68803-3746,(308)384-2440,(308)389-3274,10,HALL,
,40-0704-000,TRINITY LUTHERAN ELEM SCHOOL,208 W 13TH ST,,GRAND ISLAND,NE,68801-3881,(308)382-5274,(308)389-2418,10,HALL,
,40-0705-000,PLATTE VALLEY SDA ELEMENTARY SCHOOL,636 S SHADY BEND RD,,GRAND ISLAND,NE,68801-8565,(308)382-3281,,10,HALL,
,40-0707-000,NEW HOPE CHRISTIAN ELEM SCHOOL,610 S HIGH ST,,CAIRO,NE,68824-9613,(308)485-4169,(308)226-2270,00,HALL,
,40-0708-000,GRAND ISLAND CHRISTIAN SCHOOL,1804 W STATE ST,,GRAND ISLAND,NE,68803-2716,(308)384-2755,(308)389-3286,10,HALL,
,40-0711-000,HEARTLAND LUTHERAN HIGH SCHOOL,3900 W HUSKER HWY,,GRAND ISLAND,NE,68803-6001,(308)385-3900,(308)381-7415,10,HALL,
Matthew Fisher,40-0082-000,NORTHWEST PUBLIC SCHOOLS,2710 N NORTH RD,,GRAND ISLAND,NE,68803-1199,(308)385-6398,(308)385-6393,10,HALL,mfisher@ginorthwest.org
James Haley,40-0083-000,WOOD RIVER RURAL SCHOOLS,13800 W WOOD RIVER RD,PO BOX 518,WOOD RIVER,NE,68883-0518,(308)583-2249,(308)583-2395,10,HALL,jhaley@wrrsd.org
Kirk Russell,40-0126-000,DONIPHAN-TRUMBULL PUBLIC SCHS,302 W PLUM,PO BOX 300,DONIPHAN,NE,68832-0300,(402)845-2282,(402)845-6688,09,HALL,krussell@dtcardinals.org
Tawana Grover,40-0002-000,GRAND ISLAND PUBLIC SCHOOLS,,PO BOX 4904,GRAND ISLAND,NE,68802-4904,(308)385-5900,(308)385-5949,10,HALL,tgrover@gips.org
Damon Mcdonald,41-0504-000,AURORA PUBLIC SCHOOLS,300 L ST,,AURORA,NE,68818-1902,(402)694-6923,(402)694-5097,09,HAMILTON,dmcdonald@4rhuskies.org
Don   Weber,41-0701-000,IMMANUEL LUTHERAN ELEM SCHOOL,2406 E 26TH RD,,POLK,NE,68654-1702,(402)765-7253,(402)765-7253,07,HAMILTON,dweber55@yahoo.com
Stuart Lenz,41-0002-000,GILTNER PUBLIC SCHOOLS,#2 WEST 6TH RD,PO BOX 160,GILTNER,NE,68841-0160,(402)849-2238,(402)849-2440,09,HAMILTON,slenz@giltnerschool.us
Holly Herzberg,41-0091-000,HAMPTON PUBLIC SCHOOLS,458 5TH ST,,HAMPTON,NE,68843-9211,(402)725-3117,(402)725-3334,09,HAMILTON,hherzberg@hamptonhawks.us
,41-0702-000,HAMPTON LUTHERAN ELEM SCHOOL,732 N 3RD ST,,HAMPTON,NE,68843-9243,(402)725-3347,(402)725-3341,09,HAMILTON,
Jon Davis,42-0002-000,ALMA PUBLIC SCHOOLS,,PO BOX 170,ALMA,NE,68920-0170,(308)928-2131,(308)928-2763,11,HARLAN,jon.davis@almacardinals.org
David Primavera,43-0079-000,HAYES CENTER PUBLIC SCHOOLS,501 TROTH ST,PO BOX 8,HAYES CENTER,NE,69032-0008,(308)286-5600,(308)286-5629,15,HAYES,tprimavera@hccardinals.org
Robert Sattler,44-0070-000,HITCHCOCK CO SCH SYSTEM,312 WEST 3RD,PO BOX 368,TRENTON,NE,69044-0368,(308)334-5575,(308)334-5381,15,HITCHCOCK,rsattler@hcfalcons.org
AMY SHANE,45-0007-000,O'NEILL PUBLIC SCHOOLS,410 E BENTON,PO BOX 230,O'NEILL,NE,68763-0230,(402)336-3775,(402)336-4890,08,HOLT,amyshane@oneillschools.org
Robert Hanzlik,45-0044-000,STUART PUBLIC SCHOOLS,,PO BOX 99,STUART,NE,68780-0099,(402)924-3302,(402)924-3676,08,HOLT,rhanzlik@stuartbroncos.org
Tedsen Hillman,45-0029-000,EWING PUBLIC SCHOOLS,416 N SPRUCE ST,PO BOX 98,EWING,NE,68735-0098,(402)626-7235,(402)626-7236,08,HOLT,thillman@esu8.org
Tedsen Hillman,45-0137-000,CHAMBERS PUBLIC SCHOOLS,201 SOUTH A ST,PO BOX 218,CHAMBERS,NE,68725-0218,(402)482-5233,(402)482-5234,08,HOLT,thillman@esu8.org
Michael Ashton,45-0701-000,ST MARY'S SCHOOLS,300 N 4TH ST,,O'NEILL,NE,68763-1520,(402)336-4455,(402)336-1281,08,HOLT,mwashton@archomaha.org
Michael Ashton,45-0703-000,ST JOSEPH'S ELEMENTARY SCHOOL,102 N TULLER ST,PO BOX 69,ATKINSON,NE,68713-0069,(402)925-2104,(402)925-2104,08,HOLT,mwashton@archomaha.org
Paul Pistulka,45-0239-000,WEST HOLT PUBLIC SCHOOLS,1000 N MAIN,PO BOX 457,ATKINSON,NE,68713-0457,(402)925-2890,(402)925-2177,08,HOLT,paupistulka@westholt.org
Mark Sievering,46-0001-000,MULLEN PUBLIC SCHOOLS,404 N BLAINE,PO BOX 127,MULLEN,NE,69152-0127,(308)546-2223,(308)546-2209,16,HOOKER,mark.sievering@mullenpublicschools.org
Julie Otero,47-0100-000,CENTURA PUBLIC SCHOOLS,201 N HWY 11,PO BOX 430,CAIRO,NE,68824-0430,(308)485-4258,(308)485-4780,10,HOWARD,julie.otero@centuraps.org
John Poppert,47-0001-000,ST PAUL PUBLIC SCHOOLS,1305 HOWARD AVE,PO BOX 325,ST PAUL,NE,68873-0325,(308)754-4433,(308)754-5374,10,HOWARD,jpoppert8@gmail.com
Matthew Palmer,47-0103-000,ELBA PUBLIC SCHOOLS,711 CAROLINE ST,PO BOX 100,ELBA,NE,68835-0100,(308)863-2228,(308)863-2329,10,HOWARD,matthew.palmer@esu10.org
Stephen Grizzle,48-0008-000,FAIRBURY PUBLIC SCHOOLS,703 K ST,,FAIRBURY,NE,68352-2199,(402)729-6104,(402)729-6392,05,JEFFERSON,sgrizzle@fairburyjeffs.org
Randall Schlueter,48-0300-000,TRI COUNTY PUBLIC SCHOOLS,72520 HWY 103,,DEWITT,NE,68341-4502,(402)683-2037,(402)683-2116,05,JEFFERSON,randy.schlueter@tricountyschools.org
Randall Kort,48-0303-000,MERIDIAN PUBLIC SCHOOLS,72380 560TH AVE,PO BOX 190,DAYKIN,NE,68338-0190,(402)446-7265,(402)446-7246,05,JEFFERSON,rkort@meridianmustangs.org
,48-0702-000,ST PAUL'S LUTHERAN ELEM SCHOOL,108 E HWY 4,PO BOX 247,PLYMOUTH,NE,68424-0247,(402)656-4465,,05,JEFFERSON,
Jack Moles,49-0050-000,JOHNSON CO CENTRAL PUBLIC SCHS,358 N 6TH,PO BOX 338,TECUMSEH,NE,68450-0338,(402)335-3320,(402)335-3346,04,JOHNSON,jack.moles@jccentral.org
Rev John Perkinton,49-0702-000,ST ANDREW ELEMENTARY SCHOOL,179 N 6TH ST,PO BOX 386,TECUMSEH,NE,68450-0386,(402)335-2234,(402)335-2246,04,JOHNSON,fr.john-perkinton@cdolinc.net
Dottie Heusman,49-0033-000,STERLING PUBLIC SCHOOLS,250 MAIN ST,PO BOX 39,STERLING,NE,68443-0039,(402)866-4761,(402)866-4771,04,JOHNSON,dheusman@sterlingpublicschools.com
Carl Dietz,50-0001-000,WILCOX-HILDRETH PUBLIC SCHOOLS,404 E SAPP ST,PO BOX 190,WILCOX,NE,68982-0190,(308)478-5265,(308)478-5260,11,KEARNEY,carl.dietz@whfalcons.org
Robert Gregory,50-0501-000,AXTELL COMMUNITY SCHOOLS,500 MAIN ST,PO BOX 97,AXTELL,NE,68924-0097,(308)743-2414,(308)743-2417,11,KEARNEY,rob.gregory@axtellwildcats.org
Melissa Wheelock,50-0503-000,MINDEN PUBLIC SCHOOLS,520 W 3RD,PO BOX 301,MINDEN,NE,68959-0301,(308)832-2440,(308)832-2567,11,KEARNEY,melissa.wheelock@mindenwhippets.org
Don   Weber,51-0702-000,ST PAUL'S LUTHERAN ELEM SCHOOL,312 W 3RD ST,,OGALLALA,NE,69153-1618,(308)284-2944,(308)284-2688,16,KEITH,dweber55@yahoo.com
Michael Apple,51-0001-000,OGALLALA PUBLIC SCHOOLS,801 EAST O ST,,OGALLALA,NE,69153-1755,(308)284-4060,(308)284-3981,16,KEITH,mikeapple@opsd.org
Delbert Dack,51-0006-000,PAXTON CONSOLIDATED SCHOOLS,308 N ELM,PO BOX 368,PAXTON,NE,69155-0368,(308)239-4283,(308)239-4359,16,KEITH,del.dack@paxtonschools.org
,51-0701-000,ST LUKE ELEMENTARY SCHOOL,406 E 3RD ST,,OGALLALA,NE,69153-2637,(308)284-4841,(308)284-9839,16,KEITH,
Dennis Peters,52-0100-000,KEYA PAHA COUNTY SCHOOLS,101 FOOTBALL AVE,PO BOX 219,SPRINGVIEW,NE,68778-0219,(402)497-3501,(402)497-4321,17,KEYA PAHA,dpeters@kpschools.org
Marshall Lewis,53-0001-000,KIMBALL PUBLIC SCHOOLS,901 S NADINE,,KIMBALL,NE,69145-1399,(308)235-2188,(308)235-3269,13,KIMBALL,mlewis@kpslonghorns.org
Shane Alexander,54-0586-000,BLOOMFIELD COMMUNITY SCHOOLS,311 E BENTON,PO BOX 308,BLOOMFIELD,NE,68718-0308,(402)373-4800,(855)372-4017,01,KNOX,salexander@blfdbees.org
Margaret Sandoz,54-0501-000,NIOBRARA PUBLIC SCHOOLS,247 N HWY 12,PO BOX 310,NIOBRARA,NE,68760-0310,(402)857-3323,(402)857-3877,01,KNOX,msandoz@esu1.org
Robby Thompson,54-0013-000,CREIGHTON COMMUNITY PUBLIC SCHOOLS,,PO BOX 10,CREIGHTON,NE,68729-0010,(402)358-5000,(402)358-3804,01,KNOX,robthompson@chsbulldogs.org
Bradley Hoesing,54-0576-000,WAUSA PUBLIC SCHOOLS,300 S BISMARCK,PO BOX 159,WAUSA,NE,68786-0159,(402)586-2255,(402)586-2406,01,KNOX,bradhoesing@wausaschools.org
Kari Daniels,54-0505-000,SANTEE COMMUNITY SCHOOLS,206 FRAZIER AVE EAST,,NIOBRARA,NE,68760-7213,(402)857-2741,(402)857-2743,01,KNOX,kdaniels@santeeschools.org
,54-0701-000,ST LUDGER ELEMENTARY SCHOOL,410 BRYANT AVE,,CREIGHTON,NE,68729-2919,(402)358-3501,(402)358-3559,01,KNOX,
,54-0702-000,ST ROSE OF LIMA ELEM SCHOOL,1302 W 5TH ST,PO BOX 176,CROFTON,NE,68730-0176,(402)388-4393,(402)388-4393,01,KNOX,
Corey Dahl,54-0096-000,CROFTON COMMUNITY SCHOOLS,89048 N HWY 121,PO BOX 429,CROFTON,NE,68730-0429,(402)388-2440,(402)388-4265,01,KNOX,cdahl@croftonwarriors.org
Michelle   Lundgren,55-0755-000,PARKVIEW CHRISTIAN SCHOOLS,4400 N 1ST ST,,LINCOLN,NE,68521-2410,(402)474-5820,(402)474-5830,00,LANCASTER,mlundgren@graceu.edu
Jacqueline   Berniklau,55-0759-000,BERNIKLAU ED SOLUTIONS TEAM,6400 EASTSHORE DRIVE,,LINCOLN,NE,68516-3943,(402)420-2888,(402)420-2942,00,LANCASTER,jacquejjbest@berniklaueducationsolutionsteam.com
,55-0605-000,UNIVERSITY OF NEBRASKA HIGH SCHOOL,,PO BOX 880226,LINCOLN,NE,68588-8400,(402)472-4338,(402)472-1901,00,LANCASTER,
,55-0709-000,COLLEGE VIEW ACADEMY,5240 CALVERT ST,,LINCOLN,NE,68506-3935,(402)483-1181,(402)483-5574,00,LANCASTER,
,55-0711-000,GEORGE STONE ELEMENTARY S D A,3800 S 48TH ST,,LINCOLN,NE,68506-4316,(402)486-2896,(402)486-2574,00,LANCASTER,
,55-0713-000,ST MARK ELEMENTARY SCHOOL,3930 S 19TH ST,,LINCOLN,NE,68502-5507,(402)423-1497,(402)817-4481,00,LANCASTER,
,55-0717-000,TRINITY LUTHERAN ELEM SCHOOL,1200 N 56TH ST,,LINCOLN,NE,68504-3297,(402)466-1800,(402)466-1820,18,LANCASTER,
,55-0734-000,TRINITY KINDERGARTEN PROGRAM,1345 S 16TH,,LINCOLN,NE,68502-1416,(402)475-9731,(402)435-3185,00,LANCASTER,
,55-0743-000,PRAIRIE HILL LEARNING CENTER,17705 S 12TH,,ROCA,NE,68430-9708,(402)438-6668,(402)438-6668,00,LANCASTER,
,55-0745-000,CHILDREN'S CIRCLE MONTESSORI,121 SKYWAY RD,,LINCOLN,NE,68505-2627,(402)489-0878,(402)489-0282,00,LANCASTER,
,55-0754-000,CHILD VIEW MONTESSORI,3341 PIONEERS BLVD STE 3,,LINCOLN,NE,68506-4895,(402)484-8277,(402)484-8277,00,LANCASTER,
,55-0766-000,ST MICHAEL CATHOLIC SCHOOL,9101 SOUTH 78TH STREET,,LINCOLN,NE,68516-4003,(402)488-1313,,18,LANCASTER,
,55-4001-000,MORTON SCHOOL,,PO BOX 94949,LINCOLN,NE,68509-4949,(402)471-1645,(402)471-1647,18,LANCASTER,
,55-4002-000,PATHFINDER ED PRG-LANCASTER CO,1200 RADCLIFF STREET,,LINCOLN,NE,68512-2506,(402)441-6817,(402)441-5624,18,LANCASTER,
,55-4003-000,CHILD GUIDANCE CTR TGH SCHOOL,904 SUMNER,,LINCOLN,NE,68502-2154,(402)434-2670,(402)434-2672,18,LANCASTER,
Cory Worrell,55-0145-000,WAVERLY SCHOOL DISTRICT 145,14511 HEYWOOD ST,PO BOX 426,WAVERLY,NE,68462-0426,(402)786-2321,(402)786-2799,06,LANCASTER,cory.worrell@district145.org
Ryan Terwilliger,55-0148-000,MALCOLM PUBLIC SCHOOLS,10004 N W 112TH ST,,MALCOLM,NE,68402-9561,(402)796-2151,(402)796-2178,06,LANCASTER,ryan.terwilliger@mps148.org
Rev John Perkinton,55-0701-000,BLESSED SACRAMENT CATHOLIC ELEM SCHOOL,1725 LAKE STREET,,LINCOLN,NE,68502-3767,(402)476-6202,(402)474-4258,00,LANCASTER,fr.john-perkinton@cdolinc.net
Rev John Perkinton,55-0703-000,CATHEDRAL OF RISEN CHRIST ELEM,3245 S 37TH,,LINCOLN,NE,68506-6107,(402)489-9621,(402)489-9622,00,LANCASTER,fr.john-perkinton@cdolinc.net
Rev John Perkinton,55-0707-000,PIUS X HIGH SCHOOL,6000 A ST,,LINCOLN,NE,68510-5005,(402)488-0931,(402)488-1061,18,LANCASTER,fr.john-perkinton@cdolinc.net
Rev John Perkinton,55-0708-000,SACRED HEART ELEM SCHOOL,540 N 31ST STREET,,LINCOLN,NE,68503-3299,(402)476-1783,(402)476-3040,00,LANCASTER,fr.john-perkinton@cdolinc.net
Rev John Perkinton,55-0712-000,ST JOHN'S ELEMENTARY SCHOOL,7601 VINE ST,,LINCOLN,NE,68505-2191,(402)486-1860,(402)486-4762,00,LANCASTER,fr.john-perkinton@cdolinc.net
Rev John Perkinton,55-0714-000,ST MARY'S ELEMENTARY SCHOOL,1434 K ST,,LINCOLN,NE,68508-2730,(402)476-3987,(402)476-0838,18,LANCASTER,fr.john-perkinton@cdolinc.net
Rev John Perkinton,55-0715-000,ST PATRICK CATHOLIC SCHOOL,4142 N 61ST STREET,,LINCOLN,NE,68507-1277,(402)466-3710,(402)466-3572,00,LANCASTER,fr.john-perkinton@cdolinc.net
Rev John Perkinton,55-0716-000,ST TERESA ELEMENTARY SCHOOL,616 S 36TH ST,,LINCOLN,NE,68510-1694,(402)477-3358,(402)477-3361,00,LANCASTER,fr.john-perkinton@cdolinc.net
Rev John Perkinton,55-0719-000,ST JOSEPH'S CATHOLIC SCHOOL,1940 S 77TH ST,,LINCOLN,NE,68506-1805,(402)489-0341,(402)489-3260,18,LANCASTER,fr.john-perkinton@cdolinc.net
Rev John Perkinton,55-0720-000,VILLA MARIE SCHOOL,7205 N 112TH,,WAVERLY,NE,68462-9573,(402)786-3625,(402)786-3625,06,LANCASTER,fr.john-perkinton@cdolinc.net
Rev John Perkinton,55-0753-000,ST PETER'S CATHOLIC SCHOOL,4500 DUXHALL DR,,LINCOLN,NE,68516-2860,(402)421-6299,(402)421-6507,00,LANCASTER,fr.john-perkinton@cdolinc.net
Rev John Perkinton,55-0758-000,NORTH AMERICAN MARTYRS SCHOOL,1101 ISAAC DRIVE,,LINCOLN,NE,68521-5312,(402)476-7373,(402)476-8088,18,LANCASTER,fr.john-perkinton@cdolinc.net
Scott   Ernstmeyer,55-0706-000,LINCOLN LUTHERAN MS/SR HIGH,1100 N 56TH ST,,LINCOLN,NE,68504-3251,(402)467-5404,(402)467-5405,00,LANCASTER,sernstmeyer@lincolnlutheran.org
Zachary   Kassebaum,55-0704-000,LINCOLN CHRISTIAN SCHOOLS,5801 S 84TH ST,,LINCOLN,NE,68516-3804,(402)488-8888,(402)488-8903,00,LANCASTER,zach.kassebaum@lincolnchristian.org
John Skretta,55-0160-000,NORRIS SCHOOL DIST 160,25211 S 68TH ST,,FIRTH,NE,68358-9732,(402)791-0000,(402)791-0025,06,LANCASTER,john.skretta@nsdtitans.org
Derrick Joel,55-0161-000,RAYMOND CENTRAL PUBLIC SCHOOLS,1800 W AGNEW RD,,RAYMOND,NE,68428-9783,(402)785-2615,(402)785-2097,02,LANCASTER,djoel@rcentral.org
Stephen Joel,55-0001-000,LINCOLN PUBLIC SCHOOLS,,PO BOX 82889,LINCOLN,NE,68501-2889,(402)436-1000,(402)436-1620,18,LANCASTER,sjoel@lps.org
Don   Weber,55-0702-000,MESSIAH LUTHERAN ELEMENTARY  SCHOOL,1800 S 84TH ST,,LINCOLN,NE,68506-1899,(402)489-3024,(402)489-3093,18,LANCASTER,dweber55@yahoo.com
Don   Weber,55-0728-000,FAITH LUTHERAN SCHOOL,8701 ADAMS,,LINCOLN,NE,68507-9735,(402)466-7402,(402)466-3857,18,LANCASTER,dweber55@yahoo.com
Don   Weber,55-0762-000,GOOD SHEPHERD LUTHERAN SCHOOL,3825 WILDBRIAR LANE,,LINCOLN,NE,68516-4502,(402)423-7677,(402)423-0984,00,LANCASTER,dweber55@yahoo.com
Don   Weber,55-0764-000,CHRIST ELEMENTARY SCHOOL,4325 SUMNER STREET,,LINCOLN,NE,68506-1165,(402)483-7774,(402)483-7776,00,LANCASTER,dweber55@yahoo.com
Don   Weber,56-0701-000,OUR REDEEMER LUTHERAN ELEM SCH,1400 EAST E ST,,NORTH PLATTE,NE,69101-5770,(308)532-6421,(308)532-0295,16,LINCOLN,dweber55@yahoo.com
Kevin   Dodson,56-0702-000,NORTH PLATTE CATHOLIC SCHOOLS,,PO BOX 970,NORTH PLATTE,NE,69103-0970,(308)532-1874,(308)532-8015,16,LINCOLN,k.dodson@npcschools.org
Dan Keyser,56-0055-000,SUTHERLAND PUBLIC SCHOOLS,401 WALNUT,PO BOX 217,SUTHERLAND,NE,69165-0217,(308)386-4656,(308)386-2426,16,LINCOLN,dan.keyser@spssailors.org
Thomas Sandberg,56-0565-000,WALLACE PUBLIC SCH DIST 65 R,151 N WALLACE RD,,WALLACE,NE,69169-8016,(308)387-4323,(308)387-4322,16,LINCOLN,thsandberg@whscats.org
James Mcgown,56-0006-000,BRADY PUBLIC SCHOOLS,112 E POPLETON AVE,PO BOX 68,BRADY,NE,69123-0068,(308)584-3317,(308)584-3725,16,LINCOLN,jmcgown@bradyschools.org
RONALD HANSON,56-0001-000,NORTH PLATTE PUBLIC SCHOOLS,301 WEST F,PO BOX 1557,NORTH PLATTE,NE,69103-1557,(308)535-7100,(308)535-5300,16,LINCOLN,rhanson@nppsd.org
Todd Rhodes,56-0007-000,MAXWELL PUBLIC SCHOOLS,415 E HWY 30,PO BOX 188,MAXWELL,NE,69151-0188,(308)582-4585,(308)582-4584,16,LINCOLN,trhodes@maxwellschools.org
Jane Davis,56-0037-000,HERSHEY PUBLIC SCHOOLS,301 S LINCOLN,PO BOX 369,HERSHEY,NE,69143-0369,(308)368-5574,(308)368-5570,16,LINCOLN,jane.davis@hpspanthers.org
Howard Gaffney,57-0501-000,STAPLETON PUBLIC SCHOOLS,702 6TH STREET,PO BOX 128,STAPLETON,NE,69163-0128,(308)636-2252,(308)636-2618,16,LOGAN,howard.gaffney@stapletonschools.org
Wayne Ruppert,58-0025-000,LOUP COUNTY PUBLIC SCHOOLS,608 WILLIAMS ST,PO BOX 170,TAYLOR,NE,68879-0170,(308)942-6115,(308)942-6248,10,LOUP,wruppert@loupcountyschools.org
JAMI JO THOMPSON,59-0002-000,NORFOLK PUBLIC SCHOOLS,512 PHILIP AVE,PO BOX 139,NORFOLK,NE,68702-0139,(402)644-2500,(402)644-2506,08,MADISON,jamijothompson@npsne.org
Don   Weber,59-0706-000,CHRIST LUTHERAN ELEM SCHOOL,511 S 5TH ST,,NORFOLK,NE,68701-5297,(402)371-5536,(402)371-1288,08,MADISON,dweber55@yahoo.com
Don   Weber,59-0708-000,ST JOHN LUTHERAN ELEM SCHOOL,102 W MARTIN STREET,PO BOX 67,BATTLE CREEK,NE,68715-0067,(402)675-3605,(402)675-1303,08,MADISON,dweber55@yahoo.com
Don   Weber,59-0714-000,LUTHERAN HIGH NORTHEAST,2010 N 37 ST,,NORFOLK,NE,68701-3108,(402)379-3040,(402)379-8340,08,MADISON,dweber55@yahoo.com
Keith Leckron,59-0080-000,ELKHORN VALLEY SCHOOLS,,PO BOX 430,TILDEN,NE,68781-0430,(402)368-5301,(402)368-5338,08,MADISON,keith.a.leckron@gmail.com
JAY BELLAR,59-0005-000,BATTLE CREEK PUBLIC SCHOOLS,605 WEST MARTIN ST,PO BOX 100,BATTLE CREEK,NE,68715-0100,(402)675-6905,(402)675-1038,08,MADISON,jbellar@bcpsne.info
,59-0703-000,TRINITY LUTHERAN ELEM SCHOOL,705 W 6TH ST,PO BOX 969,MADISON,NE,68748-0969,(402)454-2651,(402)454-3476,08,MADISON,
,59-0704-000,NORFOLK CATHOLIC SCHOOLS,2300 MADISON AVE,,NORFOLK,NE,68701-4456,(402)371-2784,(402)379-2929,08,MADISON,
,59-0707-000,ST PAUL'S LUTHERAN ELEM SCHOOL,1010 GEORGIA AVE,,NORFOLK,NE,68701-2837,(402)371-1233,(402)379-3646,08,MADISON,
,59-0712-000,KEYSTONE CHRISTIAN ACADEMY,715 MADISON AVE,,NORFOLK,NE,68701-5109,(402)371-3531,(402)371-4824,00,MADISON,
,59-4001-000,NORTHEAST NE JUVENILE SERVICES,1313 1/2 N MAIN STREET,,MADISON,NE,68748-0050,(402)454-3955,(402)454-4097,08,MADISON,
Mikal Shalikow,59-0013-000,NEWMAN GROVE PUBLIC SCHOOLS,,PO BOX 370,NEWMAN GROVE,NE,68758-0370,(402)447-2721,(402)447-2445,08,MADISON,mikal.shalikow@ngpublicschools.com
Michael Ashton,59-0702-000,ST LEONARD'S ELEMENTARY SCHOOL,504 S NEBRASKA ST,PO BOX 368,MADISON,NE,68748-0368,(402)454-3525,(402)454-6533,08,MADISON,mwashton@archomaha.org
Alan Ehlers,59-0001-000,MADISON PUBLIC SCHOOLS,700 S KENT,PO BOX 450,MADISON,NE,68748-0450,(402)454-3336,(402)454-2238,08,MADISON,aehlers@esu8.org
Dana Jeppson,60-0090-000,MC PHERSON COUNTY SCHOOLS,525 HWY 92,PO BOX 38,TRYON,NE,69167-0038,(308)587-2262,(308)587-2571,16,MCPHERSON,djeppson@mcstryon.org
Joshua   Cumpston,61-0701-000,NEBRASKA CHRISTIAN SCHOOLS,1847 INSKIP AVE,,CENTRAL CITY,NE,68826-8008,(308)946-3836,(308)946-3837,00,MERRICK,jcumpston@nebraskachristian.org
Joel Bohlken,61-0049-000,PALMER PUBLIC SCHOOLS,,PO BOX 248,PALMER,NE,68864-0248,(308)894-3065,(308)894-8245,07,MERRICK,jbohlken@palmer.esu7.org
JEFFREY JENSEN,61-0004-000,CENTRAL CITY PUBLIC SCHOOLS,1711 15TH AVE,PO BOX 57,CENTRAL CITY,NE,68826-0057,(308)946-3055,(308)946-3149,07,MERRICK,jjensen@centralcityps.org
Travis Miller,62-0021-000,BAYARD PUBLIC SCHOOLS,726 4TH AVE,PO BOX 607,BAYARD,NE,69334-0607,(308)586-1325,(308)586-1638,13,MORRILL,travis.miller@bpstigers.org
Charles Lambert,62-0063-000,BRIDGEPORT PUBLIC SCHOOLS,800 Q ST,PO BOX 430,BRIDGEPORT,NE,69336-0430,(308)262-1470,(308)262-1470,13,MORRILL,clambert@bpsbulldogs.org
John Weidner,63-0030-000,TWIN RIVER PUBLIC SCHOOLS,816 WILLARD AVE,PO BOX 640,GENOA,NE,68640-0640,(402)993-2274,(402)993-7718,07,NANCE,jweidner@twinriver.esu7.org
Jeff Anderson,63-0001-000,FULLERTON PUBLIC SCHOOLS,606 4TH ST,PO BOX 520,FULLERTON,NE,68638-0520,(308)536-2431,(308)536-2432,07,NANCE,janders@fullerton.esu7.org
Kevin Reiman,64-0029-000,AUBURN PUBLIC SCHOOLS,1713 J ST.,,AUBURN,NE,68305-1614,(402)274-4830,(402)274-5227,04,NEMAHA,kevin.reiman@apsbulldogs.org
Jeffrey Koehler,64-0023-000,JOHNSON-BROCK PUBLIC SCHOOLS,310 MAIN ST,PO BOX 186,JOHNSON,NE,68378-0186,(402)868-5235,(402)868-4785,04,NEMAHA,jeff.koehler@johnsonbrock.org
Charles Isom,65-0011-000,SUPERIOR PUBLIC SCHOOLS,,PO BOX 288,SUPERIOR,NE,68978-0288,(402)879-3258,(402)879-3022,09,NUCKOLLS,cisom@superiorwildcats.org
Randall Gilson,65-2005-000,SOUTH CENTRAL NEBRASKA UNIFIED 5,30671 HWY 14,,FAIRFIELD,NE,68938-2757,(402)726-2151,(402)726-2208,09,NUCKOLLS,rgilson@southcentralunified.org
Rev John Perkinton,66-0701-000,NEBRASKA CITY LOURDES CENTRAL,412 2ND AVE,,NEBRASKA CITY,NE,68410-1799,(402)873-6154,(402)873-3154,04,OTOE,fr.john-perkinton@cdolinc.net
Jeffrey Edwards,66-0111-000,NEBRASKA CITY PUBLIC SCHOOLS,1700 14TH AVENUE,,NEBRASKA CITY,NE,68410-2064,(402)873-6033,(402)873-6030,04,OTOE,jedwards@nebcityps.org
Brad Buller,66-0027-000,SYRACUSE-DUNBAR-AVOCA SCHOOLS,550 7TH ST,PO BOX P,SYRACUSE,NE,68446-0520,(402)269-2383,(402)269-2224,04,OTOE,bbuller@sdarockets.org
Robert Hanger,66-0501-000,PALMYRA DISTRICT O R 1,425 F ST,PO BOX 130,PALMYRA,NE,68418-0130,(402)780-5327,(402)780-5328,04,OTOE,hanger.rob@districtor1.net
Brian Rottinghaus,67-0001-000,PAWNEE CITY PUBLIC SCHOOLS,729 E ST,PO BOX 393,PAWNEE CITY,NE,68420-0393,(402)852-2988,(402)852-2993,04,PAWNEE,brottinghaus@pawneecityschool.net
Rick Kentfield,67-0069-000,LEWISTON CONSOLIDATED SCHOOLS,306 TIGER AVE,,LEWISTON,NE,68380-,(402)865-4675,(402)865-4875,04,PAWNEE,rkentfield@lewistonschool.net
Phillip Picquet,68-0020-000,PERKINS COUNTY SCHOOLS,740 SHERMAN AVE,PO BOX 829,GRANT,NE,69140-0829,(308)352-4735,(308)352-4769,16,PERKINS,phillip.picquet@perkinscountyschools.org
Rev John Perkinton,69-0705-000,ALL SAINTS CATHOLIC SCHOOL,1206 LOGAN ST,,HOLDREGE,NE,68949-1446,(308)995-4590,(308)995-2217,11,PHELPS,fr.john-perkinton@cdolinc.net
Todd Hilyard,69-0044-000,HOLDREGE PUBLIC SCHOOLS,505 14TH AVE,PO BOX 2002,HOLDREGE,NE,68949-2002,(308)995-8663,(308)995-6956,11,PHELPS,todd.hilyard@dusters.org
Sammy Dunn,69-0055-000,LOOMIS PUBLIC SCHOOLS,101 BRYAN,PO BOX 250,LOOMIS,NE,68958-0250,(308)876-2111,(308)876-2372,11,PHELPS,sam.dunn@loomiswolves.org
Dennis Shipp,69-0054-000,BERTRAND PUBLIC SCHOOLS,503 SCHOOL ST,PO BOX 278,BERTRAND,NE,68927-0278,(308)472-3427,(308)472-3429,11,PHELPS,dennis.shipp@bertrandvikings.org
David Hamm,70-0542-000,OSMOND COMMUNITY SCHOOLS,202 W PRAIRIE ST,PO BOX 458,OSMOND,NE,68765-0458,(402)748-3777,(402)748-3210,08,PIERCE,dhamm@esu8.org
Darron Arlt,70-0005-000,PLAINVIEW PUBLIC SCHOOLS,301 W PILCHER,PO BOX 638,PLAINVIEW,NE,68769-0638,(402)582-4993,(402)582-4665,08,PIERCE,darlt@plainviewschools.org
KENDALL STEFFENSEN,70-0002-000,PIERCE PUBLIC SCHOOLS,201 N SUNSET,,PIERCE,NE,68767-1816,(402)329-4677,(402)329-4678,08,PIERCE,kendallsteffensen@piercebluejays.org
,70-0701-000,ZION LUTHERAN ELEMENTARY SCH,520 E MAIN ST,,PIERCE,NE,68767-1668,(402)329-4658,(402)329-6406,08,PIERCE,
,70-0702-000,ZION LUTHERAN ELEMENTARY SCH,102 N 6TH ST,PO BOX 159,PLAINVIEW,NE,68769-0159,(402)582-3312,(402)582-3912,08,PIERCE,
,70-0703-000,IMMANUEL LUTHERAN ELEM SCH,105 E ELM,PO BOX 190,HADAR,NE,68738-0190,(402)371-0685,,08,PIERCE,
,70-0705-000,ST MARY ELEMENTARY SCHOOL,302 E 5TH ST,PO BOX 427,OSMOND,NE,68765-0427,(402)748-3433,(402)748-3433,08,PIERCE,
,71-0706-000,HOLY FAMILY SCHOOLS,301 PINE STREET,PO BOX 158,LINDSAY,NE,68644-0158,(402)428-3455,(402)428-3231,07,PLATTE,
,71-0708-000,ST FRANCIS SCHOOLS,300 S 7TH ST,PO BOX 277,HUMPHREY,NE,68642-0277,(402)923-0818,(402)923-1590,07,PLATTE,
,71-0710-000,ST JOHN LUTHERAN ELEM SCHOOL,39346 205TH AVE,,COLUMBUS,NE,68601-9819,(402)285-0335,(402)285-0335,07,PLATTE,
,71-0712-000,COLUMBUS CHRISTIAN SCHOOL,3418 15TH ST,PO BOX 924,COLUMBUS,NE,68602-0924,(402)562-6470,,07,PLATTE,
Aaron Plas,71-0005-000,LAKEVIEW COMMUNITY SCHOOLS,3744 83RD ST,,COLUMBUS,NE,68601-8841,(402)563-2345,(402)564-5209,07,PLATTE,aplas@lakeview.esu7.org
Don   Weber,71-0701-000,IMMANUEL LUTHERAN ELEM SCHOOL,2865 26TH AVE,,COLUMBUS,NE,68601-1826,(402)564-8423,(402)564-1162,07,PLATTE,dweber55@yahoo.com
Don   Weber,71-0711-000,CHRIST LUTHERAN ELEMENTARY SCH,32312 122ND AVE,,COLUMBUS,NE,68601-8727,(402)564-3531,(402)564-5680,07,PLATTE,dweber55@yahoo.com
Greg Sjuts,71-0067-000,HUMPHREY PUBLIC SCHOOLS,405 SOUTH 7TH STREET,PO BOX 278,HUMPHREY,NE,68642-0278,(402)923-1230,(402)923-1235,07,PLATTE,gregsjuts@humphrey.esu7.org
Troy Loeffelholz,71-0001-000,COLUMBUS PUBLIC SCHOOLS,2508 27TH ST,PO BOX 947,COLUMBUS,NE,68602-0947,(402)563-7000,(402)563-7005,07,PLATTE,loeffelholzt@discoverers.org
Michael Ashton,71-0702-000,ST ANTHONY ELEMENTARY SCHOOL,1719 6TH ST,,COLUMBUS,NE,68601-6907,(402)564-4767,(402)564-5530,07,PLATTE,mwashton@archomaha.org
Michael Ashton,71-0703-000,ST BONAVENTURE ELEM SCHOOL,1604 15TH ST,,COLUMBUS,NE,68601-5229,(402)564-7153,(402)564-2587,07,PLATTE,mwashton@archomaha.org
Michael Ashton,71-0704-000,ST ISIDORE ELEMENTARY SCHOOL,3821 20TH ST,,COLUMBUS,NE,68601-2903,(402)564-2604,(402)564-8955,07,PLATTE,mwashton@archomaha.org
Michael Ashton,71-0705-000,SCOTUS CENTRAL CATHOLIC,1554 18TH AVE,,COLUMBUS,NE,68601-5132,(402)564-7165,(402)564-6004,07,PLATTE,mwashton@archomaha.org
Chester Kay,72-0032-000,SHELBY - RISING CITY PUBLIC SCHOOLS,650 N WALNUT,PO BOX 218,SHELBY,NE,68662-0218,(402)527-5946,(402)527-5133,07,POLK,ckay@shelby.esu7.org
Brian Tonniges,72-0075-000,HIGH PLAINS COMMUNITY SCHOOLS,260 S PINE,PO BOX 29,POLK,NE,68654-0029,(402)765-2271,(402)765-2272,07,POLK,btonniges@hpcstorm.org
Steve Rinehart,72-0019-000,OSCEOLA PUBLIC SCHOOLS,565 S KIMMEL,PO BOX 198,OSCEOLA,NE,68651-0198,(402)747-3121,(402)747-3041,07,POLK,srinehart@osceola.esu7.org
Brent Hollinger,72-0015-000,CROSS COUNTY COMMUNITY SCHOOLS,1270 123RD RD,PO BOX 525,STROMSBURG,NE,68666-0525,(402)764-5521,(402)764-8294,07,POLK,bhollinger@crosscounty.esu7.org
,72-0701-000,POLK COUNTY CHRISTIAN SCHOOL,,PO BOX 177,OSCEOLA,NE,68651-0177,(402)747-6561,,07,POLK,
Robert Porter,73-0179-000,SOUTHWEST PUBLIC SCHOOLS,900 COKE ST,PO BOX 187,BARTLEY,NE,69020-0187,(308)692-3223,(308)692-3221,15,RED WILLOW,todd.porter@swpschools.org
Grant Norgaard,73-0017-000,MC COOK PUBLIC SCHOOLS,700 W 7TH,,MC COOK,NE,69001-3079,(308)345-2510,(308)345-2511,15,RED WILLOW,gnorgaard@mccookbison.org
Rev John Perkinton,73-0701-000,ST PATRICK'S ELEMENTARY SCHOOL,401 EAST F,PO BOX 1040,MC COOK,NE,69001-1040,(308)345-4546,(308)345-4546,15,RED WILLOW,fr.john-perkinton@cdolinc.net
Rev John Perkinton,74-0702-000,SACRED HEART SCHOOLS,1820 FULTON ST,,FALLS CITY,NE,68355-2234,(402)245-4151,(402)245-5217,04,RICHARDSON,fr.john-perkinton@cdolinc.net
Sherri Edmundson,74-0070-000,HUMBOLDT TABLE ROCK STEINAUER,810 CENTRAL AVE,,HUMBOLDT,NE,68376-9706,(402)862-2235,(402)862-3135,04,RICHARDSON,sherriedmundson@htrstitans.org
Timothy Heckenlively,74-0056-000,FALLS CITY PUBLIC SCHOOLS,1415 MORTON ST,PO BOX 129,FALLS CITY,NE,68355-0129,(402)245-2825,(402)245-2022,04,RICHARDSON,theckenlively@fallscityps.org
Thomas Becker,75-0100-000,ROCK COUNTY PUBLIC SCHOOLS,EAST HWY 20,PO BOX 448,BASSETT,NE,68714-0448,(402)684-3411,(402)684-3671,17,ROCK,tbecker@rockcountyschools.org
Daryl Schrunk,76-0044-000,DORCHESTER PUBLIC SCHOOL,506 W 9TH,PO BOX 7,DORCHESTER,NE,68343-0007,(402)946-2781,(402)946-6271,06,SALINE,dschrunk@dorchesterschool.org
Raymond Collins,76-0082-000,WILBER-CLATONIA PUBLIC SCHOOLS,900 S FRANKLIN,PO BOX 487,WILBER,NE,68465-0487,(402)821-2266,(402)821-3013,06,SALINE,ray.collins@wilberclatonia.org
Mike Waters,76-0002-000,CRETE PUBLIC SCHOOLS,920 LINDEN AVE,,CRETE,NE,68333-2292,(402)826-5855,(402)826-5120,06,SALINE,mike.waters@creteschools.org
,76-0703-000,ZION LUTHERAN ELEMENTARY SCH,2245 COUNTY ROAD 400,,TOBIAS,NE,68453-9759,(402)243-2354,(402)243-2354,05,SALINE,
Rev John Perkinton,76-0701-000,ST JAMES ELEMENTARY SCHOOL,525 E 14TH ST,,CRETE,NE,68333-1604,(402)826-2318,(402)826-2318,06,SALINE,fr.john-perkinton@cdolinc.net
David Kraus,76-0068-000,FRIEND PUBLIC SCHOOLS,501 MAIN ST,PO BOX 67,FRIEND,NE,68359-0067,(402)947-2781,(402)947-2026,06,SALINE,david.kraus@friendschool.org
Teri Lynn Schrag,77-0713-000,CORNERSTONE CHRISTIAN SCHOOLS,1001 N. FORT CROOK ROAD,,BELLEVUE,NE,68005-,(402)292-1030,,00,SARPY,tlschrag@ccsnebraska.org
JEFFREY RIPPE,77-0001-000,BELLEVUE PUBLIC SCHOOLS,2600 ARBORETUM DRIVE,,BELLEVUE,NE,68005-3591,(402)293-4000,(402)293-5002,03,SARPY,jeff.rippe@bpsne.net
KEVIN RILEY,77-0037-000,GRETNA PUBLIC SCHOOLS,11717 S 216TH ST,,GRETNA,NE,68028-4729,(402)332-3265,(402)332-5833,03,SARPY,kriley@gpsne.org
,77-0705-000,ST COLUMBKILLE ELEMENTARY SCH,224 E 5TH ST RM 100,,PAPILLION,NE,68046-2299,(402)339-8706,(402)592-4147,00,SARPY,
,77-0706-000,ST MATTHEW THE EVANGELIST SCH,12210 S 36TH ST SUITE B,,BELLEVUE,NE,68123-1299,(402)291-2030,(402)292-7421,00,SARPY,
,77-0721-000,NGL ACADEMY,330 RILEY BLDG, BELLEVUE UNIVERSITY, 100,,BELLEVUE,NE,,(301)452-9230,,00,SARPY,
,77-4002-000,PATRICK J THOMAS JUVENILE JUSTICE CNTR,9701 PORTAL ROAD,,PAPILLION,NE,68046-3033,(402)537-7030,(402)537-7098,03,SARPY,
ANDREW RIKLI,77-0027-000,PAPILLION LA VISTA COMMUNITY SCHOOLS,420 S WASHINGTON ST,,PAPILLION,NE,68046-2667,(402)537-9998,(402)537-6216,03,SARPY,arikli@paplv.org
Brett Richards,77-0046-000,SPRINGFIELD PLATTEVIEW COMMUNITY SCHOOLS,14801 S 108TH ST,,SPRINGFIELD,NE,68059-4925,(402)592-1300,(402)597-8551,03,SARPY,brichards@springfieldplatteview.org
Michael Ashton,77-0701-000,ST MARY ELEMENTARY SCHOOL,903 WEST MISSION AVE,,BELLEVUE,NE,68005-3998,(402)291-1694,(402)291-9667,03,SARPY,mwashton@archomaha.org
Michael Ashton,77-0702-000,ST BERNADETTE ELEMENTARY SCH,7600 S 42ND ST,,OMAHA,NE,68147-1702,(402)731-3033,(402)731-8735,03,SARPY,mwashton@archomaha.org
Michael Ashton,77-0703-000,DANIEL J GROSS CATHOLIC HIGH,7700 S 43RD ST,,BELLEVUE,NE,68147-1706,(402)734-2000,(402)734-4270,03,SARPY,mwashton@archomaha.org
Michael Ashton,77-0720-000,PRIMROSE SCH OF LA VISTA-PRIVATE KDG,8202 S 97TH PLAZA,,LAVISTA,NE,68128-,(402)517-1153,,03,SARPY,mwashton@archomaha.org
Brandon Lavaley,78-0039-000,WAHOO PUBLIC SCHOOLS,2201 N LOCUST,,WAHOO,NE,68066-1093,(402)443-3051,(402)443-4731,02,SAUNDERS,blavaley@wahoowarriors.org
Fr. mike   Morin,78-0701-000,ST WENCESLAUS ELEMENTARY SCH,108 N LINDEN,,WAHOO,NE,68066-1953,(402)443-3336,(402)443-5551,02,SAUNDERS,fr.mike-morin@cdolinc.net
Fr. mike   Morin,78-0702-000,BISHOP NEUMANN HIGH SCHOOL,202 S LINDEN,,WAHOO,NE,68066-2057,(402)443-4151,(402)443-5551,02,SAUNDERS,fr.mike-morin@cdolinc.net
Rev John Perkinton,78-0703-000,ST JOHN NEPOMUCENE ELEM SCHOOL,130 N FRONT,PO BOX 10,WESTON,NE,68070-0010,(402)642-5234,(402)642-5590,02,SAUNDERS,fr.john-perkinton@cdolinc.net
Stanford Hendricks,78-0009-000,YUTAN PUBLIC SCHOOLS,1200 2ND ST,,YUTAN,NE,68073-3054,(402)625-2243,(402)625-2812,02,SAUNDERS,stan.hendricks@esu2.org
Harlan Ptomey,78-0107-000,CEDAR BLUFFS PUBLIC SCHOOLS,110 E MAIN ST,PO BOX 66,CEDAR BLUFFS,NE,68015-0066,(402)628-2060,(402)628-2108,02,SAUNDERS,hptomey@esu2.org
Dale Rawson,78-0072-000,MEAD PUBLIC SCHOOLS,115 N ELM,PO BOX 158,MEAD,NE,68041-0158,(402)624-2745,(402)624-2001,02,SAUNDERS,drawson@esu2.org
Jason Libal,78-0001-000,ASHLAND-GREENWOOD PUBLIC SCHS,1842 FURNAS STREET,,ASHLAND,NE,68003-1899,(402)944-2128,(402)944-3310,02,SAUNDERS,jason.libal@agps.org
Bobby Hastings,79-0016-000,GERING PUBLIC SCHOOLS,1519 10TH ST,,GERING,NE,69341-2942,(308)436-3125,(308)436-4301,13,SCOTTS BLUFF,bhastings@geringschools.net
Tim Cody,79-0002-000,MINATARE PUBLIC SCHOOLS,1107 7TH ST,PO BOX 425,MINATARE,NE,69356-0425,(308)783-1232,(308)783-1050,13,SCOTTS BLUFF,supttimcody@gmail.com
Richard Myles,79-0032-000,SCOTTSBLUFF PUBLIC SCHOOLS,1722 1ST AVENUE,,SCOTTSBLUFF,NE,69361-1609,(308)635-6200,(308)635-6217,13,SCOTTS BLUFF,rmyles@sbps.net
Joseph Sherwood,79-0011-000,MORRILL PUBLIC SCHOOLS,,PO BOX 486,MORRILL,NE,69358-0486,(308)247-3414,(308)247-2196,13,SCOTTS BLUFF,joe.sherwood@mpslions.org
Katherine Urbanek,79-0031-000,MITCHELL PUBLIC SCHOOLS,1819 19TH AVE,,MITCHELL,NE,69357-1199,(308)623-1707,(308)623-1330,13,SCOTTS BLUFF,kurbanek@mpstigers.com
,79-0702-000,ST AGNES ELEMENTARY SCHOOL,205 E 23RD ST,,SCOTTSBLUFF,NE,69361-2026,(308)632-6918,(308)632-6943,13,SCOTTS BLUFF,
,79-0703-000,VALLEY VIEW SDA CHRISITAN SCH,415 W 31ST STREET,,SCOTTSBLUFF,NE,69361-4319,(308)632-8804,,00,SCOTTS BLUFF,
,79-0705-000,COMMUNITY CHRISTIAN SCHOOLS,511 W 14TH ST,,SCOTTSBLUFF,NE,69361-3009,(308)632-2230,(308)632-2230,13,SCOTTS BLUFF,
,80-0703-000,OUR REDEEMER LUTHERAN ELEM SCH,425 SOUTH ST,,STAPLEHURST,NE,68439-3028,(402)535-2251,(402)535-2421,06,SEWARD,
,80-0704-000,ST PAUL'S LUTHERAN ELEM SCHOOL,1100 D ST,,UTICA,NE,68456-6043,(402)534-2121,(888)534-3015,06,SEWARD,
Don   Weber,80-0701-000,ST JOHN LUTHERAN SCHOOL,877 N COLUMBIA,,SEWARD,NE,68434-1598,(402)643-4535,(402)643-4536,06,SEWARD,dweber55@yahoo.com
Rev John Perkinton,80-0710-000,ST VINCENT DEPAUL CATHOLIC SCH,152 PINEWOOD AVE,,SEWARD,NE,68434-1047,(402)643-9525,(402)643-2594,06,SEWARD,fr.john-perkinton@cdolinc.net
Josh Fields,80-0009-000,SEWARD PUBLIC SCHOOLS,410 SOUTH ST,,SEWARD,NE,68434-2541,(402)643-2941,(402)643-4986,06,SEWARD,josh.fields@sewardschools.org
Kevin Wingard,80-0005-000,MILFORD PUBLIC SCHOOLS,1200 W 1ST STREET,PO BOX C,MILFORD,NE,68405-0613,(402)761-3321,(402)761-3322,06,SEWARD,kevin.wingard@milfordpublicschools.org
Timothy Dewaard,80-0567-000,CENTENNIAL PUBLIC SCHOOLS,1301 CENTENNIAL,PO BOX 187,UTICA,NE,68456-0187,(402)534-2291,(402)534-2291,06,SEWARD,tim.dewaard@centennialbroncos.org
Lori Liggett,81-0010-000,GORDON-RUSHVILLE PUBLIC SCHS,810 N OAK ST,PO BOX 530,GORDON,NE,69343-0530,(308)282-1322,(308)282-2207,13,SHERIDAN,lori.liggett@grmustangs.org
D Lechtenberg,81-0003-000,HAY SPRINGS PUBLIC SCHOOLS,407 N BAKER ST,PO BOX 280,HAY SPRINGS,NE,69347-0280,(308)638-4434,(402)915-5126,13,SHERIDAN,russell.lechtenberg@hshawks.com
Blake Dahlberg,82-0001-000,LOUP CITY PUBLIC SCHOOLS,800 N 8TH ST,PO BOX 628,LOUP CITY,NE,68853-0628,(308)745-0120,(308)745-0130,10,SHERMAN,blake.dahlberg@lcpublic.org
Wade Finley,82-0015-000,LITCHFIELD PUBLIC SCHOOLS,500 N MAIN,PO BOX 167,LITCHFIELD,NE,68852-0167,(308)446-2244,(308)446-2244,10,SHERMAN,wade.finley@litchfieldps.org
Brett Gies,83-0500-000,SIOUX COUNTY PUBLIC SCHOOLS,435 KATE,PO BOX 38,HARRISON,NE,69346-0038,(308)668-2415,(308)668-2260,13,SIOUX,bgies@siouxcountyschools.org
Michael Sieh,84-0003-000,STANTON COMMUNITY SCHOOLS,1007 KINGWOOD ST,PO BOX 749,STANTON,NE,68779-0749,(402)439-2233,(402)439-2270,08,STANTON,msieh@esu8.org
Trudy Clark,85-2001-000,BRUNING-DAVENPORT UNIFIED SYS,106 N JUNIPER AVE,PO BOX 190,DAVENPORT,NE,68335-0190,(402)364-2225,(402)364-2477,05,THAYER,tclark@bdstorm.org
AL MEIER,85-0060-000,DESHLER PUBLIC SCHOOLS,1402 3RD ST,PO BOX 547,DESHLER,NE,68340-0547,(402)365-7272,(402)365-7560,05,THAYER,al.meier@deshlerdragons.org
Don   Weber,85-0703-000,DESHLER LUTHERAN ELEM SCHOOL,509 E HEBRON AVE,PO BOX 340,DESHLER,NE,68340-0340,(402)365-7858,(402)365-7858,05,THAYER,dweber55@yahoo.com
Drew Harris,85-0070-000,THAYER CENTRAL COMMUNITY SCHS,930 EADS AVE,PO BOX 9,HEBRON,NE,68370-0009,(402)768-6117,(402)768-6110,05,THAYER,drew.harris@thayercentral.net
GARY COOPER,86-0001-000,THEDFORD PUBLIC SCHOOLS,304 MAPLE ST,PO BOX 248,THEDFORD,NE,69166-0248,(308)645-2230,(308)645-2618,16,THOMAS,gary.cooper@thedfordschools.org
Michael Ashton,87-0701-000,ST AUGUSTINE ELEMENTARY SCHOOL,1 MISSION RD SO,PO BOX GG,WINNEBAGO,NE,68071-0766,(402)878-2291,(402)878-2760,01,THURSTON,mwashton@archomaha.org
Daniel Fehringer,87-0017-000,WINNEBAGO PUBLIC SCHOOLS,,PO BOX KK,WINNEBAGO,NE,68071-0769,(402)878-2224,(402)878-2472,01,THURSTON,dfehringer@winnebagok12.org
Stacie Hardy,87-0016-000,UMO N HO N NATION PUBLIC SCHS,470 MAIN ST,PO BOX 280,MACY,NE,68039-0280,(402)837-5622,(402)837-5245,01,THURSTON,shardy@unpsk-12.org
Jason Dolliver,87-0001-000,PENDER PUBLIC SCHOOLS,609 WHITNEY ST,,PENDER,NE,68047-5036,(402)385-3244,(402)385-2285,01,THURSTON,jadolli1@penderschools.org
Ed Stansberry,87-0013-000,WALTHILL PUBLIC SCHOOLS,602 MAIN ST,PO BOX 3C,WALTHILL,NE,68067-0563,(402)846-5432,(402)846-5029,01,THURSTON,estansberry@walthillschool.org
,88-0701-000,ST MARY'S ELEMENTARY SCHOOL,527 N 20TH ST,,ORD,NE,68862-1028,(308)728-5389,(308)728-3360,10,VALLEY,
Jason Alexander,88-0005-000,ORD PUBLIC SCHOOLS,320 N 19TH,,ORD,NE,68862-1355,(308)728-5013,(308)728-5108,10,VALLEY,jalexander@ordps.org
Jess Underwood,88-0021-000,ARCADIA PUBLIC SCHOOLS,320 W OWENS ST,PO BOX 248,ARCADIA,NE,68815-0248,(308)789-6522,(308)789-6214,10,VALLEY,jess.underwood@apshuskies.org
LYNN JOHNSON,89-0024-000,ARLINGTON PUBLIC SCHOOLS,705 NORTH 9TH,PO BOX 580,ARLINGTON,NE,68002-0580,(402)478-4173,(402)478-4176,03,WASHINGTON,lynn.johnson@apseagles.org
Don   Weber,89-0701-000,ST PAUL'S LUTHERAN ELEM SCHOOL,8951 COUNTY ROAD 9,,ARLINGTON,NE,68002-5030,(402)478-4278,(402)478-5378,03,WASHINGTON,dweber55@yahoo.com
DONALD JOHNSON,89-0003-000,FORT CALHOUN COMMUNITY SCHS,5876 COUNTY ROAD P43,PO BOX 430,FORT CALHOUN,NE,68023-0430,(402)468-5596,(402)468-5593,03,WASHINGTON,djohnson@ftcpioneers.org
REX PFEIL,89-0001-000,BLAIR COMMUNITY SCHOOLS,2232 WASHINGTON STREET,PO BOX 288,BLAIR,NE,68008-0288,(402)426-2610,(402)426-3110,03,WASHINGTON,rex.pfeil@blairschools.org
Mark Bejot,90-0560-000,WAKEFIELD PUBLIC SCHOOLS,802 HIGHLAND,PO BOX 330,WAKEFIELD,NE,68784-0330,(402)287-2012,(402)287-2014,01,WAYNE,mbejot@wakefieldschools.org
Michael Ashton,90-0702-000,ST MARY'S CATHOLIC SCHOOL,420 E 7TH ST,,WAYNE,NE,68787-2217,(402)375-2337,(402)375-5782,01,WAYNE,mwashton@archomaha.org
Michael Shoff,90-0595-000,WINSIDE PUBLIC SCHOOLS,203 CRAWFORD AVE,,WINSIDE,NE,68790-5107,(402)286-4466,(402)286-4582,01,WAYNE,mshoff@winsidewildcats.org
,90-0701-000,TRINITY LUTHERAN SCHOOLS,212 W 4TH,PO BOX 100,HOSKINS,NE,68740-0100,(402)565-4517,,08,WAYNE,
Mark Lenihan,90-0017-000,WAYNE COMMUNITY SCHOOLS,611 W 7TH ST,,WAYNE,NE,68787-1715,(402)375-3150,(402)375-5251,01,WAYNE,malenih1@waynebluedevils.org
Joel Ruybalid,91-0074-000,BLUE HILL PUBLIC SCHOOLS,,PO BOX 217,BLUE HILL,NE,68930-0217,(402)756-2085,(402)756-2086,09,WEBSTER,joelruybalid@bluehillschools.org
Brian Hof,91-0002-000,RED CLOUD COMMUNITY SCHOOLS,334 N CHERRY,,RED CLOUD,NE,68970-2246,(402)746-3413,(402)746-3690,09,WEBSTER,bhof@redcloudschool.us
Rodney Olson,92-0045-000,WHEELER CENTRAL SCHOOLS,600 RANDOLPH WEST,PO BOX 68,BARTLETT,NE,68622-0068,(308)654-3273,(308)654-3237,08,WHEELER,rodney.olson@wbroncs.org
Msgr   Reinert,93-0702-000,ST JOSEPH'S ELEMENTARY SCHOOL,428 EAST AVE,,YORK,NE,68467-3799,(402)362-3021,(402)362-4067,00,YORK,msgr.james-reinert@cdolinc.net
Mark   Otte,93-0703-000,NEBRASKA EV LUTHERAN SCHOOLS,203 KENDALL ST,,WACO,NE,68460-3000,(402)728-5236,(402)728-5433,06,YORK,motte@nelhs.org
Bradley Best,93-0096-000,HEARTLAND COMMUNITY SCHOOLS,1501 FRONT ST,,HENDERSON,NE,68371-8929,(402)723-4434,(402)723-4431,06,YORK,bbest@heartlandschools.net
Don   Weber,93-0701-000,EMMANUEL-FAITH LUTHERAN SCHOOL,806 N BEAVER  AVE,,YORK,NE,68467-2432,(402)362-6575,(402)362-5485,06,YORK,dweber55@yahoo.com
Curtis Cogswell,93-0083-000,MC COOL JUNCTION PUBLIC SCHS,209 S 2ND ST,PO BOX 278,MCCOOL JUNCTION,NE,68401-0278,(402)724-2231,(402)724-2232,06,YORK,ccogswell@mcjmustangs.org
Dr. Michael Lucas,93-0012-000,YORK PUBLIC SCHOOLS,1715 N DELAWARE AVE,,YORK,NE,68467-,(402)362-6655,(402)362-6943,06,YORK,mike.lucas@yorkdukes.org